<?xml version="1.0" encoding="UTF-8"?>
<gpx version="1.1" creator="AlteaHome" xmlns="http://www.topografix.com/GPX/1/1">
 <metadata><name>Altea Hills - al mar y vuelta</name></metadata>
 <trk><name>Altea Hills - al mar y vuelta</name><type>running</type><trkseg>
  <trkpt lat="38.6344540" lon="-0.0038730"><ele>163.8</ele></trkpt>
  <trkpt lat="38.6344540" lon="-0.0038730"><ele>163.8</ele></trkpt>
  <trkpt lat="38.6344100" lon="-0.0039880"><ele>163.4</ele></trkpt>
  <trkpt lat="38.6340430" lon="-0.0043760"><ele>163.6</ele></trkpt>
  <trkpt lat="38.6340170" lon="-0.0043830"><ele>164.0</ele></trkpt>
  <trkpt lat="38.6339250" lon="-0.0044040"><ele>165.0</ele></trkpt>
  <trkpt lat="38.6338680" lon="-0.0044390"><ele>166.0</ele></trkpt>
  <trkpt lat="38.6338520" lon="-0.0044540"><ele>166.4</ele></trkpt>
  <trkpt lat="38.6338240" lon="-0.0044850"><ele>166.4</ele></trkpt>
  <trkpt lat="38.6337840" lon="-0.0045200"><ele>166.8</ele></trkpt>
  <trkpt lat="38.6337640" lon="-0.0045360"><ele>167.2</ele></trkpt>
  <trkpt lat="38.6337190" lon="-0.0045650"><ele>167.8</ele></trkpt>
  <trkpt lat="38.6336690" lon="-0.0046590"><ele>168.2</ele></trkpt>
  <trkpt lat="38.6336160" lon="-0.0047210"><ele>168.8</ele></trkpt>
  <trkpt lat="38.6335510" lon="-0.0048850"><ele>168.2</ele></trkpt>
  <trkpt lat="38.6335030" lon="-0.0050770"><ele>167.0</ele></trkpt>
  <trkpt lat="38.6334970" lon="-0.0051120"><ele>166.8</ele></trkpt>
  <trkpt lat="38.6334850" lon="-0.0052200"><ele>165.8</ele></trkpt>
  <trkpt lat="38.6334770" lon="-0.0053290"><ele>164.8</ele></trkpt>
  <trkpt lat="38.6334810" lon="-0.0054410"><ele>163.8</ele></trkpt>
  <trkpt lat="38.6334770" lon="-0.0054780"><ele>163.4</ele></trkpt>
  <trkpt lat="38.6334980" lon="-0.0056140"><ele>162.2</ele></trkpt>
  <trkpt lat="38.6335020" lon="-0.0056810"><ele>161.6</ele></trkpt>
  <trkpt lat="38.6335090" lon="-0.0057170"><ele>161.0</ele></trkpt>
  <trkpt lat="38.6335360" lon="-0.0058510"><ele>159.8</ele></trkpt>
  <trkpt lat="38.6335600" lon="-0.0059590"><ele>159.2</ele></trkpt>
  <trkpt lat="38.6335880" lon="-0.0060370"><ele>158.6</ele></trkpt>
  <trkpt lat="38.6336730" lon="-0.0061940"><ele>157.6</ele></trkpt>
  <trkpt lat="38.6336990" lon="-0.0062180"><ele>157.2</ele></trkpt>
  <trkpt lat="38.6338430" lon="-0.0062990"><ele>157.6</ele></trkpt>
  <trkpt lat="38.6339580" lon="-0.0063570"><ele>158.0</ele></trkpt>
  <trkpt lat="38.6340240" lon="-0.0064570"><ele>158.4</ele></trkpt>
  <trkpt lat="38.6340420" lon="-0.0064840"><ele>158.4</ele></trkpt>
  <trkpt lat="38.6341490" lon="-0.0066830"><ele>158.6</ele></trkpt>
  <trkpt lat="38.6341670" lon="-0.0067110"><ele>158.6</ele></trkpt>
  <trkpt lat="38.6342360" lon="-0.0068820"><ele>159.2</ele></trkpt>
  <trkpt lat="38.6342740" lon="-0.0069390"><ele>159.4</ele></trkpt>
  <trkpt lat="38.6343460" lon="-0.0070620"><ele>160.4</ele></trkpt>
  <trkpt lat="38.6343590" lon="-0.0070930"><ele>160.6</ele></trkpt>
  <trkpt lat="38.6344560" lon="-0.0073170"><ele>160.8</ele></trkpt>
  <trkpt lat="38.6344840" lon="-0.0073700"><ele>160.8</ele></trkpt>
  <trkpt lat="38.6346160" lon="-0.0075280"><ele>160.8</ele></trkpt>
  <trkpt lat="38.6346400" lon="-0.0075420"><ele>160.8</ele></trkpt>
  <trkpt lat="38.6347160" lon="-0.0075900"><ele>161.6</ele></trkpt>
  <trkpt lat="38.6348240" lon="-0.0076270"><ele>162.6</ele></trkpt>
  <trkpt lat="38.6348470" lon="-0.0076380"><ele>163.0</ele></trkpt>
  <trkpt lat="38.6349370" lon="-0.0076950"><ele>164.4</ele></trkpt>
  <trkpt lat="38.6349690" lon="-0.0077110"><ele>165.0</ele></trkpt>
  <trkpt lat="38.6349940" lon="-0.0077260"><ele>165.8</ele></trkpt>
  <trkpt lat="38.6351080" lon="-0.0077940"><ele>167.2</ele></trkpt>
  <trkpt lat="38.6351220" lon="-0.0078120"><ele>167.6</ele></trkpt>
  <trkpt lat="38.6351420" lon="-0.0078380"><ele>168.4</ele></trkpt>
  <trkpt lat="38.6351710" lon="-0.0078480"><ele>168.4</ele></trkpt>
  <trkpt lat="38.6352290" lon="-0.0078560"><ele>168.6</ele></trkpt>
  <trkpt lat="38.6352300" lon="-0.0078530"><ele>168.6</ele></trkpt>
  <trkpt lat="38.6353640" lon="-0.0079800"><ele>168.4</ele></trkpt>
  <trkpt lat="38.6353790" lon="-0.0080150"><ele>168.2</ele></trkpt>
  <trkpt lat="38.6354070" lon="-0.0081170"><ele>167.4</ele></trkpt>
  <trkpt lat="38.6354210" lon="-0.0081850"><ele>167.2</ele></trkpt>
  <trkpt lat="38.6354210" lon="-0.0082460"><ele>167.0</ele></trkpt>
  <trkpt lat="38.6354090" lon="-0.0082750"><ele>166.6</ele></trkpt>
  <trkpt lat="38.6353840" lon="-0.0083270"><ele>166.0</ele></trkpt>
  <trkpt lat="38.6353770" lon="-0.0083530"><ele>166.0</ele></trkpt>
  <trkpt lat="38.6353510" lon="-0.0085720"><ele>165.4</ele></trkpt>
  <trkpt lat="38.6353620" lon="-0.0086490"><ele>164.8</ele></trkpt>
  <trkpt lat="38.6353690" lon="-0.0088170"><ele>164.2</ele></trkpt>
  <trkpt lat="38.6353720" lon="-0.0089580"><ele>163.8</ele></trkpt>
  <trkpt lat="38.6354080" lon="-0.0091450"><ele>162.4</ele></trkpt>
  <trkpt lat="38.6354640" lon="-0.0093050"><ele>161.4</ele></trkpt>
  <trkpt lat="38.6354990" lon="-0.0093710"><ele>161.0</ele></trkpt>
  <trkpt lat="38.6355560" lon="-0.0094600"><ele>160.2</ele></trkpt>
  <trkpt lat="38.6356090" lon="-0.0096420"><ele>159.2</ele></trkpt>
  <trkpt lat="38.6357000" lon="-0.0097980"><ele>158.0</ele></trkpt>
  <trkpt lat="38.6357420" lon="-0.0098570"><ele>157.6</ele></trkpt>
  <trkpt lat="38.6358320" lon="-0.0100150"><ele>156.8</ele></trkpt>
  <trkpt lat="38.6359010" lon="-0.0101410"><ele>156.2</ele></trkpt>
  <trkpt lat="38.6359260" lon="-0.0101670"><ele>155.8</ele></trkpt>
  <trkpt lat="38.6360230" lon="-0.0103190"><ele>154.6</ele></trkpt>
  <trkpt lat="38.6360400" lon="-0.0103510"><ele>154.4</ele></trkpt>
  <trkpt lat="38.6361460" lon="-0.0105150"><ele>153.6</ele></trkpt>
  <trkpt lat="38.6361870" lon="-0.0105630"><ele>153.4</ele></trkpt>
  <trkpt lat="38.6363260" lon="-0.0106820"><ele>152.8</ele></trkpt>
  <trkpt lat="38.6363990" lon="-0.0107270"><ele>152.0</ele></trkpt>
  <trkpt lat="38.6365090" lon="-0.0107660"><ele>151.6</ele></trkpt>
  <trkpt lat="38.6365940" lon="-0.0108260"><ele>151.2</ele></trkpt>
  <trkpt lat="38.6366040" lon="-0.0108500"><ele>151.0</ele></trkpt>
  <trkpt lat="38.6366230" lon="-0.0108630"><ele>151.0</ele></trkpt>
  <trkpt lat="38.6367700" lon="-0.0109310"><ele>150.6</ele></trkpt>
  <trkpt lat="38.6369460" lon="-0.0110290"><ele>150.2</ele></trkpt>
  <trkpt lat="38.6370100" lon="-0.0110660"><ele>150.0</ele></trkpt>
  <trkpt lat="38.6370510" lon="-0.0111290"><ele>150.0</ele></trkpt>
  <trkpt lat="38.6370630" lon="-0.0111650"><ele>150.0</ele></trkpt>
  <trkpt lat="38.6371710" lon="-0.0113790"><ele>149.4</ele></trkpt>
  <trkpt lat="38.6372230" lon="-0.0114770"><ele>149.0</ele></trkpt>
  <trkpt lat="38.6372510" lon="-0.0115480"><ele>148.2</ele></trkpt>
  <trkpt lat="38.6373020" lon="-0.0116430"><ele>147.6</ele></trkpt>
  <trkpt lat="38.6373660" lon="-0.0117300"><ele>147.0</ele></trkpt>
  <trkpt lat="38.6373950" lon="-0.0118010"><ele>146.6</ele></trkpt>
  <trkpt lat="38.6375040" lon="-0.0119720"><ele>145.4</ele></trkpt>
  <trkpt lat="38.6375690" lon="-0.0120970"><ele>144.4</ele></trkpt>
  <trkpt lat="38.6376440" lon="-0.0122190"><ele>143.2</ele></trkpt>
  <trkpt lat="38.6377270" lon="-0.0123910"><ele>142.0</ele></trkpt>
  <trkpt lat="38.6377780" lon="-0.0125090"><ele>141.2</ele></trkpt>
  <trkpt lat="38.6377730" lon="-0.0125390"><ele>141.0</ele></trkpt>
  <trkpt lat="38.6377410" lon="-0.0126550"><ele>140.0</ele></trkpt>
  <trkpt lat="38.6377190" lon="-0.0126910"><ele>139.8</ele></trkpt>
  <trkpt lat="38.6376760" lon="-0.0127390"><ele>139.6</ele></trkpt>
  <trkpt lat="38.6376150" lon="-0.0128510"><ele>139.4</ele></trkpt>
  <trkpt lat="38.6375340" lon="-0.0130290"><ele>139.0</ele></trkpt>
  <trkpt lat="38.6374980" lon="-0.0131170"><ele>139.0</ele></trkpt>
  <trkpt lat="38.6374220" lon="-0.0131680"><ele>138.6</ele></trkpt>
  <trkpt lat="38.6373880" lon="-0.0131650"><ele>138.2</ele></trkpt>
  <trkpt lat="38.6372410" lon="-0.0131070"><ele>137.8</ele></trkpt>
  <trkpt lat="38.6371430" lon="-0.0130680"><ele>137.6</ele></trkpt>
  <trkpt lat="38.6370750" lon="-0.0130430"><ele>137.4</ele></trkpt>
  <trkpt lat="38.6368950" lon="-0.0129510"><ele>137.2</ele></trkpt>
  <trkpt lat="38.6368670" lon="-0.0129450"><ele>137.2</ele></trkpt>
  <trkpt lat="38.6366810" lon="-0.0128560"><ele>136.8</ele></trkpt>
  <trkpt lat="38.6365760" lon="-0.0128080"><ele>136.4</ele></trkpt>
  <trkpt lat="38.6364570" lon="-0.0127560"><ele>136.0</ele></trkpt>
  <trkpt lat="38.6363700" lon="-0.0127390"><ele>135.4</ele></trkpt>
  <trkpt lat="38.6362070" lon="-0.0126880"><ele>134.8</ele></trkpt>
  <trkpt lat="38.6361190" lon="-0.0126660"><ele>134.2</ele></trkpt>
  <trkpt lat="38.6359940" lon="-0.0126830"><ele>133.2</ele></trkpt>
  <trkpt lat="38.6358310" lon="-0.0127260"><ele>131.8</ele></trkpt>
  <trkpt lat="38.6357310" lon="-0.0127600"><ele>131.2</ele></trkpt>
  <trkpt lat="38.6356140" lon="-0.0128310"><ele>130.8</ele></trkpt>
  <trkpt lat="38.6355550" lon="-0.0128730"><ele>130.4</ele></trkpt>
  <trkpt lat="38.6355000" lon="-0.0129290"><ele>129.8</ele></trkpt>
  <trkpt lat="38.6353780" lon="-0.0130800"><ele>128.8</ele></trkpt>
  <trkpt lat="38.6353540" lon="-0.0131080"><ele>128.6</ele></trkpt>
  <trkpt lat="38.6352570" lon="-0.0132780"><ele>127.4</ele></trkpt>
  <trkpt lat="38.6352150" lon="-0.0133940"><ele>126.2</ele></trkpt>
  <trkpt lat="38.6351630" lon="-0.0135560"><ele>125.0</ele></trkpt>
  <trkpt lat="38.6351400" lon="-0.0136390"><ele>124.4</ele></trkpt>
  <trkpt lat="38.6351250" lon="-0.0137220"><ele>123.8</ele></trkpt>
  <trkpt lat="38.6351090" lon="-0.0138470"><ele>122.4</ele></trkpt>
  <trkpt lat="38.6350860" lon="-0.0139730"><ele>121.4</ele></trkpt>
  <trkpt lat="38.6350750" lon="-0.0140120"><ele>121.0</ele></trkpt>
  <trkpt lat="38.6350480" lon="-0.0141300"><ele>120.0</ele></trkpt>
  <trkpt lat="38.6350360" lon="-0.0141680"><ele>119.6</ele></trkpt>
  <trkpt lat="38.6350240" lon="-0.0142040"><ele>119.0</ele></trkpt>
  <trkpt lat="38.6349790" lon="-0.0143060"><ele>117.6</ele></trkpt>
  <trkpt lat="38.6349170" lon="-0.0143900"><ele>116.8</ele></trkpt>
  <trkpt lat="38.6349030" lon="-0.0144220"><ele>116.2</ele></trkpt>
  <trkpt lat="38.6348440" lon="-0.0145050"><ele>115.0</ele></trkpt>
  <trkpt lat="38.6348200" lon="-0.0145270"><ele>114.8</ele></trkpt>
  <trkpt lat="38.6347320" lon="-0.0145770"><ele>114.2</ele></trkpt>
  <trkpt lat="38.6346670" lon="-0.0145950"><ele>114.0</ele></trkpt>
  <trkpt lat="38.6345020" lon="-0.0146640"><ele>113.0</ele></trkpt>
  <trkpt lat="38.6344730" lon="-0.0146760"><ele>112.8</ele></trkpt>
  <trkpt lat="38.6342930" lon="-0.0147630"><ele>112.0</ele></trkpt>
  <trkpt lat="38.6342610" lon="-0.0147750"><ele>111.8</ele></trkpt>
  <trkpt lat="38.6342280" lon="-0.0147890"><ele>111.6</ele></trkpt>
  <trkpt lat="38.6340420" lon="-0.0148930"><ele>110.8</ele></trkpt>
  <trkpt lat="38.6339920" lon="-0.0149210"><ele>110.6</ele></trkpt>
  <trkpt lat="38.6339650" lon="-0.0149340"><ele>110.6</ele></trkpt>
  <trkpt lat="38.6338300" lon="-0.0149880"><ele>109.6</ele></trkpt>
  <trkpt lat="38.6337240" lon="-0.0150150"><ele>108.8</ele></trkpt>
  <trkpt lat="38.6336610" lon="-0.0150180"><ele>108.6</ele></trkpt>
  <trkpt lat="38.6335680" lon="-0.0150110"><ele>107.4</ele></trkpt>
  <trkpt lat="38.6334820" lon="-0.0150130"><ele>106.0</ele></trkpt>
  <trkpt lat="38.6333920" lon="-0.0150130"><ele>104.8</ele></trkpt>
  <trkpt lat="38.6333260" lon="-0.0150120"><ele>103.6</ele></trkpt>
  <trkpt lat="38.6332670" lon="-0.0150030"><ele>102.8</ele></trkpt>
  <trkpt lat="38.6332390" lon="-0.0150020"><ele>102.2</ele></trkpt>
  <trkpt lat="38.6331190" lon="-0.0149880"><ele>100.6</ele></trkpt>
  <trkpt lat="38.6330560" lon="-0.0149850"><ele>99.6</ele></trkpt>
  <trkpt lat="38.6329940" lon="-0.0149840"><ele>99.2</ele></trkpt>
  <trkpt lat="38.6329600" lon="-0.0149870"><ele>98.6</ele></trkpt>
  <trkpt lat="38.6328570" lon="-0.0149780"><ele>97.2</ele></trkpt>
  <trkpt lat="38.6327530" lon="-0.0149740"><ele>96.0</ele></trkpt>
  <trkpt lat="38.6327200" lon="-0.0149690"><ele>95.6</ele></trkpt>
  <trkpt lat="38.6326630" lon="-0.0149680"><ele>94.8</ele></trkpt>
  <trkpt lat="38.6325800" lon="-0.0149810"><ele>93.6</ele></trkpt>
  <trkpt lat="38.6324820" lon="-0.0149780"><ele>92.6</ele></trkpt>
  <trkpt lat="38.6324150" lon="-0.0149650"><ele>91.8</ele></trkpt>
  <trkpt lat="38.6323450" lon="-0.0149490"><ele>91.4</ele></trkpt>
  <trkpt lat="38.6322320" lon="-0.0148980"><ele>91.0</ele></trkpt>
  <trkpt lat="38.6321760" lon="-0.0148910"><ele>90.8</ele></trkpt>
  <trkpt lat="38.6321510" lon="-0.0149180"><ele>90.8</ele></trkpt>
  <trkpt lat="38.6321260" lon="-0.0149520"><ele>90.8</ele></trkpt>
  <trkpt lat="38.6321140" lon="-0.0149850"><ele>90.8</ele></trkpt>
  <trkpt lat="38.6320930" lon="-0.0150890"><ele>90.6</ele></trkpt>
  <trkpt lat="38.6320760" lon="-0.0151510"><ele>90.0</ele></trkpt>
  <trkpt lat="38.6320330" lon="-0.0152520"><ele>88.8</ele></trkpt>
  <trkpt lat="38.6319900" lon="-0.0153220"><ele>87.6</ele></trkpt>
  <trkpt lat="38.6319530" lon="-0.0153690"><ele>86.0</ele></trkpt>
  <trkpt lat="38.6319070" lon="-0.0154050"><ele>85.0</ele></trkpt>
  <trkpt lat="38.6318410" lon="-0.0154310"><ele>84.0</ele></trkpt>
  <trkpt lat="38.6317220" lon="-0.0154420"><ele>82.6</ele></trkpt>
  <trkpt lat="38.6316720" lon="-0.0154330"><ele>81.4</ele></trkpt>
  <trkpt lat="38.6316480" lon="-0.0154150"><ele>80.8</ele></trkpt>
  <trkpt lat="38.6316380" lon="-0.0154010"><ele>80.2</ele></trkpt>
  <trkpt lat="38.6316100" lon="-0.0153620"><ele>79.0</ele></trkpt>
  <trkpt lat="38.6315550" lon="-0.0152850"><ele>77.6</ele></trkpt>
  <trkpt lat="38.6315010" lon="-0.0152500"><ele>77.0</ele></trkpt>
  <trkpt lat="38.6314700" lon="-0.0152400"><ele>76.6</ele></trkpt>
  <trkpt lat="38.6314140" lon="-0.0152390"><ele>75.8</ele></trkpt>
  <trkpt lat="38.6313870" lon="-0.0152570"><ele>75.6</ele></trkpt>
  <trkpt lat="38.6313660" lon="-0.0152960"><ele>75.0</ele></trkpt>
  <trkpt lat="38.6313590" lon="-0.0153460"><ele>74.4</ele></trkpt>
  <trkpt lat="38.6313640" lon="-0.0154470"><ele>73.0</ele></trkpt>
  <trkpt lat="38.6313630" lon="-0.0154910"><ele>72.8</ele></trkpt>
  <trkpt lat="38.6313480" lon="-0.0155780"><ele>72.0</ele></trkpt>
  <trkpt lat="38.6313050" lon="-0.0157270"><ele>70.8</ele></trkpt>
  <trkpt lat="38.6311690" lon="-0.0157740"><ele>69.4</ele></trkpt>
  <trkpt lat="38.6310560" lon="-0.0157140"><ele>68.6</ele></trkpt>
  <trkpt lat="38.6310500" lon="-0.0156960"><ele>68.4</ele></trkpt>
  <trkpt lat="38.6310460" lon="-0.0156820"><ele>68.2</ele></trkpt>
  <trkpt lat="38.6310780" lon="-0.0156070"><ele>67.6</ele></trkpt>
  <trkpt lat="38.6310860" lon="-0.0155820"><ele>67.0</ele></trkpt>
  <trkpt lat="38.6311100" lon="-0.0154880"><ele>65.8</ele></trkpt>
  <trkpt lat="38.6311020" lon="-0.0154330"><ele>65.0</ele></trkpt>
  <trkpt lat="38.6310960" lon="-0.0154140"><ele>64.6</ele></trkpt>
  <trkpt lat="38.6310860" lon="-0.0154100"><ele>64.0</ele></trkpt>
  <trkpt lat="38.6310710" lon="-0.0154190"><ele>63.4</ele></trkpt>
  <trkpt lat="38.6310490" lon="-0.0154210"><ele>63.4</ele></trkpt>
  <trkpt lat="38.6310450" lon="-0.0154180"><ele>63.2</ele></trkpt>
  <trkpt lat="38.6309700" lon="-0.0151970"><ele>62.4</ele></trkpt>
  <trkpt lat="38.6309500" lon="-0.0151700"><ele>62.2</ele></trkpt>
  <trkpt lat="38.6309170" lon="-0.0151080"><ele>61.6</ele></trkpt>
  <trkpt lat="38.6309120" lon="-0.0150780"><ele>61.8</ele></trkpt>
  <trkpt lat="38.6308860" lon="-0.0149760"><ele>62.2</ele></trkpt>
  <trkpt lat="38.6308790" lon="-0.0149640"><ele>62.2</ele></trkpt>
  <trkpt lat="38.6308550" lon="-0.0149180"><ele>62.6</ele></trkpt>
  <trkpt lat="38.6308220" lon="-0.0148560"><ele>63.0</ele></trkpt>
  <trkpt lat="38.6308070" lon="-0.0148370"><ele>63.2</ele></trkpt>
  <trkpt lat="38.6308070" lon="-0.0148340"><ele>63.2</ele></trkpt>
  <trkpt lat="38.6306760" lon="-0.0148640"><ele>63.0</ele></trkpt>
  <trkpt lat="38.6306460" lon="-0.0148630"><ele>63.0</ele></trkpt>
  <trkpt lat="38.6305240" lon="-0.0148240"><ele>63.0</ele></trkpt>
  <trkpt lat="38.6304950" lon="-0.0148150"><ele>63.4</ele></trkpt>
  <trkpt lat="38.6303840" lon="-0.0147650"><ele>64.0</ele></trkpt>
  <trkpt lat="38.6303080" lon="-0.0147310"><ele>64.6</ele></trkpt>
  <trkpt lat="38.6302020" lon="-0.0146930"><ele>65.6</ele></trkpt>
  <trkpt lat="38.6301510" lon="-0.0146930"><ele>65.8</ele></trkpt>
  <trkpt lat="38.6301280" lon="-0.0147050"><ele>66.0</ele></trkpt>
  <trkpt lat="38.6300860" lon="-0.0147420"><ele>66.2</ele></trkpt>
  <trkpt lat="38.6299830" lon="-0.0147850"><ele>66.4</ele></trkpt>
  <trkpt lat="38.6299300" lon="-0.0147950"><ele>66.2</ele></trkpt>
  <trkpt lat="38.6298470" lon="-0.0148270"><ele>66.2</ele></trkpt>
  <trkpt lat="38.6298010" lon="-0.0148600"><ele>66.0</ele></trkpt>
  <trkpt lat="38.6297200" lon="-0.0149440"><ele>64.6</ele></trkpt>
  <trkpt lat="38.6296700" lon="-0.0150270"><ele>63.6</ele></trkpt>
  <trkpt lat="38.6295820" lon="-0.0151630"><ele>62.0</ele></trkpt>
  <trkpt lat="38.6295160" lon="-0.0152640"><ele>60.8</ele></trkpt>
  <trkpt lat="38.6294280" lon="-0.0153890"><ele>59.8</ele></trkpt>
  <trkpt lat="38.6293680" lon="-0.0154720"><ele>58.8</ele></trkpt>
  <trkpt lat="38.6293460" lon="-0.0155010"><ele>58.4</ele></trkpt>
  <trkpt lat="38.6292760" lon="-0.0156900"><ele>57.4</ele></trkpt>
  <trkpt lat="38.6292710" lon="-0.0157290"><ele>57.2</ele></trkpt>
  <trkpt lat="38.6292030" lon="-0.0159530"><ele>57.0</ele></trkpt>
  <trkpt lat="38.6291880" lon="-0.0159800"><ele>56.6</ele></trkpt>
  <trkpt lat="38.6291450" lon="-0.0160430"><ele>56.4</ele></trkpt>
  <trkpt lat="38.6291070" lon="-0.0160920"><ele>56.2</ele></trkpt>
  <trkpt lat="38.6289700" lon="-0.0162700"><ele>56.0</ele></trkpt>
  <trkpt lat="38.6287940" lon="-0.0163910"><ele>55.6</ele></trkpt>
  <trkpt lat="38.6287290" lon="-0.0164290"><ele>55.2</ele></trkpt>
  <trkpt lat="38.6286290" lon="-0.0164750"><ele>54.8</ele></trkpt>
  <trkpt lat="38.6285710" lon="-0.0164880"><ele>54.2</ele></trkpt>
  <trkpt lat="38.6284500" lon="-0.0165240"><ele>53.2</ele></trkpt>
  <trkpt lat="38.6284220" lon="-0.0165280"><ele>53.0</ele></trkpt>
  <trkpt lat="38.6282680" lon="-0.0165430"><ele>52.0</ele></trkpt>
  <trkpt lat="38.6281430" lon="-0.0165460"><ele>51.0</ele></trkpt>
  <trkpt lat="38.6281140" lon="-0.0165460"><ele>51.0</ele></trkpt>
  <trkpt lat="38.6280310" lon="-0.0165100"><ele>49.8</ele></trkpt>
  <trkpt lat="38.6280090" lon="-0.0164890"><ele>49.6</ele></trkpt>
  <trkpt lat="38.6279650" lon="-0.0163570"><ele>49.4</ele></trkpt>
  <trkpt lat="38.6279520" lon="-0.0161550"><ele>49.8</ele></trkpt>
  <trkpt lat="38.6279090" lon="-0.0161420"><ele>49.6</ele></trkpt>
  <trkpt lat="38.6278880" lon="-0.0161600"><ele>49.6</ele></trkpt>
  <trkpt lat="38.6278340" lon="-0.0163070"><ele>49.0</ele></trkpt>
  <trkpt lat="38.6278300" lon="-0.0163990"><ele>48.8</ele></trkpt>
  <trkpt lat="38.6278380" lon="-0.0165240"><ele>48.4</ele></trkpt>
  <trkpt lat="38.6278300" lon="-0.0165910"><ele>48.4</ele></trkpt>
  <trkpt lat="38.6278020" lon="-0.0166290"><ele>47.8</ele></trkpt>
  <trkpt lat="38.6277860" lon="-0.0166300"><ele>47.6</ele></trkpt>
  <trkpt lat="38.6277550" lon="-0.0165940"><ele>46.6</ele></trkpt>
  <trkpt lat="38.6277340" lon="-0.0165730"><ele>46.4</ele></trkpt>
  <trkpt lat="38.6276020" lon="-0.0164810"><ele>45.8</ele></trkpt>
  <trkpt lat="38.6275520" lon="-0.0164390"><ele>45.2</ele></trkpt>
  <trkpt lat="38.6274510" lon="-0.0163330"><ele>44.0</ele></trkpt>
  <trkpt lat="38.6274240" lon="-0.0163070"><ele>43.8</ele></trkpt>
  <trkpt lat="38.6273440" lon="-0.0162470"><ele>43.0</ele></trkpt>
  <trkpt lat="38.6272550" lon="-0.0161940"><ele>42.6</ele></trkpt>
  <trkpt lat="38.6272220" lon="-0.0161890"><ele>42.6</ele></trkpt>
  <trkpt lat="38.6271900" lon="-0.0161920"><ele>42.0</ele></trkpt>
  <trkpt lat="38.6271050" lon="-0.0162610"><ele>41.0</ele></trkpt>
  <trkpt lat="38.6270760" lon="-0.0164270"><ele>40.0</ele></trkpt>
  <trkpt lat="38.6270800" lon="-0.0164690"><ele>39.8</ele></trkpt>
  <trkpt lat="38.6271320" lon="-0.0166980"><ele>39.0</ele></trkpt>
  <trkpt lat="38.6271470" lon="-0.0167380"><ele>39.0</ele></trkpt>
  <trkpt lat="38.6271750" lon="-0.0168160"><ele>38.8</ele></trkpt>
  <trkpt lat="38.6271750" lon="-0.0168830"><ele>38.6</ele></trkpt>
  <trkpt lat="38.6271500" lon="-0.0169210"><ele>38.4</ele></trkpt>
  <trkpt lat="38.6271360" lon="-0.0169170"><ele>38.2</ele></trkpt>
  <trkpt lat="38.6271020" lon="-0.0168980"><ele>38.0</ele></trkpt>
  <trkpt lat="38.6270810" lon="-0.0168820"><ele>37.6</ele></trkpt>
  <trkpt lat="38.6270140" lon="-0.0168350"><ele>36.8</ele></trkpt>
  <trkpt lat="38.6270100" lon="-0.0168150"><ele>36.2</ele></trkpt>
  <trkpt lat="38.6269850" lon="-0.0167370"><ele>34.6</ele></trkpt>
  <trkpt lat="38.6269450" lon="-0.0167050"><ele>33.4</ele></trkpt>
  <trkpt lat="38.6269040" lon="-0.0166960"><ele>31.8</ele></trkpt>
  <trkpt lat="38.6268660" lon="-0.0166920"><ele>30.2</ele></trkpt>
  <trkpt lat="38.6268190" lon="-0.0166870"><ele>28.8</ele></trkpt>
  <trkpt lat="38.6267940" lon="-0.0166870"><ele>28.0</ele></trkpt>
  <trkpt lat="38.6267720" lon="-0.0166950"><ele>27.2</ele></trkpt>
  <trkpt lat="38.6267410" lon="-0.0167250"><ele>25.2</ele></trkpt>
  <trkpt lat="38.6267340" lon="-0.0167450"><ele>24.2</ele></trkpt>
  <trkpt lat="38.6267250" lon="-0.0167670"><ele>23.0</ele></trkpt>
  <trkpt lat="38.6267120" lon="-0.0167830"><ele>21.8</ele></trkpt>
  <trkpt lat="38.6266830" lon="-0.0167940"><ele>20.2</ele></trkpt>
  <trkpt lat="38.6266700" lon="-0.0167940"><ele>19.2</ele></trkpt>
  <trkpt lat="38.6266360" lon="-0.0167970"><ele>17.6</ele></trkpt>
  <trkpt lat="38.6266140" lon="-0.0168030"><ele>16.6</ele></trkpt>
  <trkpt lat="38.6265900" lon="-0.0168040"><ele>15.4</ele></trkpt>
  <trkpt lat="38.6265660" lon="-0.0168000"><ele>14.4</ele></trkpt>
  <trkpt lat="38.6265280" lon="-0.0167760"><ele>12.6</ele></trkpt>
  <trkpt lat="38.6264910" lon="-0.0167520"><ele>11.0</ele></trkpt>
  <trkpt lat="38.6264530" lon="-0.0167400"><ele>9.6</ele></trkpt>
  <trkpt lat="38.6264100" lon="-0.0167190"><ele>8.4</ele></trkpt>
  <trkpt lat="38.6263890" lon="-0.0166990"><ele>8.0</ele></trkpt>
  <trkpt lat="38.6263660" lon="-0.0166770"><ele>7.4</ele></trkpt>
  <trkpt lat="38.6263140" lon="-0.0166490"><ele>6.2</ele></trkpt>
  <trkpt lat="38.6262580" lon="-0.0166130"><ele>5.2</ele></trkpt>
  <trkpt lat="38.6262070" lon="-0.0166040"><ele>4.0</ele></trkpt>
  <trkpt lat="38.6261880" lon="-0.0166000"><ele>3.6</ele></trkpt>
  <trkpt lat="38.6261300" lon="-0.0165750"><ele>2.6</ele></trkpt>
  <trkpt lat="38.6260730" lon="-0.0165630"><ele>1.2</ele></trkpt>
  <trkpt lat="38.6260240" lon="-0.0165840"><ele>0.8</ele></trkpt>
  <trkpt lat="38.6259590" lon="-0.0166500"><ele>0.2</ele></trkpt>
  <trkpt lat="38.6259010" lon="-0.0167290"><ele>-0.8</ele></trkpt>
  <trkpt lat="38.6258760" lon="-0.0167870"><ele>-1.8</ele></trkpt>
  <trkpt lat="38.6258590" lon="-0.0168080"><ele>-1.8</ele></trkpt>
  <trkpt lat="38.6257400" lon="-0.0169580"><ele>-3.0</ele></trkpt>
  <trkpt lat="38.6256470" lon="-0.0171560"><ele>-3.4</ele></trkpt>
  <trkpt lat="38.6255210" lon="-0.0173450"><ele>-3.0</ele></trkpt>
  <trkpt lat="38.6255010" lon="-0.0173680"><ele>-2.8</ele></trkpt>
  <trkpt lat="38.6253640" lon="-0.0175360"><ele>-2.0</ele></trkpt>
  <trkpt lat="38.6252890" lon="-0.0176640"><ele>-0.8</ele></trkpt>
  <trkpt lat="38.6252280" lon="-0.0177390"><ele>-0.2</ele></trkpt>
  <trkpt lat="38.6251700" lon="-0.0178180"><ele>0.6</ele></trkpt>
  <trkpt lat="38.6251180" lon="-0.0178940"><ele>1.8</ele></trkpt>
  <trkpt lat="38.6250800" lon="-0.0179430"><ele>2.8</ele></trkpt>
  <trkpt lat="38.6250450" lon="-0.0179890"><ele>4.2</ele></trkpt>
  <trkpt lat="38.6249800" lon="-0.0181040"><ele>5.2</ele></trkpt>
  <trkpt lat="38.6249210" lon="-0.0182330"><ele>5.6</ele></trkpt>
  <trkpt lat="38.6248260" lon="-0.0184550"><ele>4.6</ele></trkpt>
  <trkpt lat="38.6247890" lon="-0.0185260"><ele>4.6</ele></trkpt>
  <trkpt lat="38.6247170" lon="-0.0187660"><ele>6.0</ele></trkpt>
  <trkpt lat="38.6247040" lon="-0.0187960"><ele>6.2</ele></trkpt>
  <trkpt lat="38.6245940" lon="-0.0189260"><ele>7.2</ele></trkpt>
  <trkpt lat="38.6245320" lon="-0.0189980"><ele>8.4</ele></trkpt>
  <trkpt lat="38.6244350" lon="-0.0191160"><ele>9.6</ele></trkpt>
  <trkpt lat="38.6243940" lon="-0.0191560"><ele>10.2</ele></trkpt>
  <trkpt lat="38.6243490" lon="-0.0192040"><ele>10.8</ele></trkpt>
  <trkpt lat="38.6242640" lon="-0.0193110"><ele>12.0</ele></trkpt>
  <trkpt lat="38.6241910" lon="-0.0194160"><ele>13.0</ele></trkpt>
  <trkpt lat="38.6240680" lon="-0.0195770"><ele>14.4</ele></trkpt>
  <trkpt lat="38.6240330" lon="-0.0196340"><ele>14.8</ele></trkpt>
  <trkpt lat="38.6239950" lon="-0.0196800"><ele>16.0</ele></trkpt>
  <trkpt lat="38.6239700" lon="-0.0196980"><ele>16.6</ele></trkpt>
  <trkpt lat="38.6239360" lon="-0.0197310"><ele>17.2</ele></trkpt>
  <trkpt lat="38.6239160" lon="-0.0197750"><ele>18.2</ele></trkpt>
  <trkpt lat="38.6238690" lon="-0.0198510"><ele>19.6</ele></trkpt>
  <trkpt lat="38.6238170" lon="-0.0198920"><ele>20.8</ele></trkpt>
  <trkpt lat="38.6237550" lon="-0.0199370"><ele>22.2</ele></trkpt>
  <trkpt lat="38.6237170" lon="-0.0199780"><ele>23.6</ele></trkpt>
  <trkpt lat="38.6236970" lon="-0.0199980"><ele>24.2</ele></trkpt>
  <trkpt lat="38.6236730" lon="-0.0200200"><ele>25.0</ele></trkpt>
  <trkpt lat="38.6236300" lon="-0.0200680"><ele>26.2</ele></trkpt>
  <trkpt lat="38.6235930" lon="-0.0201240"><ele>27.6</ele></trkpt>
  <trkpt lat="38.6235260" lon="-0.0202050"><ele>28.8</ele></trkpt>
  <trkpt lat="38.6234850" lon="-0.0202490"><ele>29.8</ele></trkpt>
  <trkpt lat="38.6234410" lon="-0.0202900"><ele>30.8</ele></trkpt>
  <trkpt lat="38.6233970" lon="-0.0203320"><ele>32.4</ele></trkpt>
  <trkpt lat="38.6233560" lon="-0.0203780"><ele>33.4</ele></trkpt>
  <trkpt lat="38.6233360" lon="-0.0204000"><ele>34.2</ele></trkpt>
  <trkpt lat="38.6233170" lon="-0.0204250"><ele>35.2</ele></trkpt>
  <trkpt lat="38.6232740" lon="-0.0204740"><ele>37.0</ele></trkpt>
  <trkpt lat="38.6232350" lon="-0.0205200"><ele>39.0</ele></trkpt>
  <trkpt lat="38.6232170" lon="-0.0205450"><ele>39.2</ele></trkpt>
  <trkpt lat="38.6231950" lon="-0.0205700"><ele>40.2</ele></trkpt>
  <trkpt lat="38.6231520" lon="-0.0206180"><ele>41.8</ele></trkpt>
  <trkpt lat="38.6231100" lon="-0.0206620"><ele>43.8</ele></trkpt>
  <trkpt lat="38.6230900" lon="-0.0206870"><ele>45.0</ele></trkpt>
  <trkpt lat="38.6230710" lon="-0.0207110"><ele>46.0</ele></trkpt>
  <trkpt lat="38.6230290" lon="-0.0207550"><ele>47.6</ele></trkpt>
  <trkpt lat="38.6229860" lon="-0.0208040"><ele>49.0</ele></trkpt>
  <trkpt lat="38.6229150" lon="-0.0209070"><ele>50.0</ele></trkpt>
  <trkpt lat="38.6228960" lon="-0.0209290"><ele>50.2</ele></trkpt>
  <trkpt lat="38.6228760" lon="-0.0209580"><ele>50.8</ele></trkpt>
  <trkpt lat="38.6228550" lon="-0.0209840"><ele>51.6</ele></trkpt>
  <trkpt lat="38.6227980" lon="-0.0210630"><ele>53.0</ele></trkpt>
  <trkpt lat="38.6227470" lon="-0.0211550"><ele>54.4</ele></trkpt>
  <trkpt lat="38.6227160" lon="-0.0212130"><ele>56.0</ele></trkpt>
  <trkpt lat="38.6226860" lon="-0.0212790"><ele>57.8</ele></trkpt>
  <trkpt lat="38.6226530" lon="-0.0213400"><ele>59.8</ele></trkpt>
  <trkpt lat="38.6226370" lon="-0.0213640"><ele>60.0</ele></trkpt>
  <trkpt lat="38.6225660" lon="-0.0214600"><ele>56.0</ele></trkpt>
  <trkpt lat="38.6225450" lon="-0.0214810"><ele>53.8</ele></trkpt>
  <trkpt lat="38.6225030" lon="-0.0215230"><ele>53.8</ele></trkpt>
  <trkpt lat="38.6224270" lon="-0.0216170"><ele>55.4</ele></trkpt>
  <trkpt lat="38.6223850" lon="-0.0216520"><ele>56.6</ele></trkpt>
  <trkpt lat="38.6223630" lon="-0.0216720"><ele>57.8</ele></trkpt>
  <trkpt lat="38.6223390" lon="-0.0216900"><ele>58.2</ele></trkpt>
  <trkpt lat="38.6222490" lon="-0.0217700"><ele>56.6</ele></trkpt>
  <trkpt lat="38.6221630" lon="-0.0218480"><ele>59.8</ele></trkpt>
  <trkpt lat="38.6221390" lon="-0.0218640"><ele>62.6</ele></trkpt>
  <trkpt lat="38.6221170" lon="-0.0218810"><ele>65.8</ele></trkpt>
  <trkpt lat="38.6220980" lon="-0.0218990"><ele>68.6</ele></trkpt>
  <trkpt lat="38.6220770" lon="-0.0219210"><ele>71.6</ele></trkpt>
  <trkpt lat="38.6220580" lon="-0.0219500"><ele>74.6</ele></trkpt>
  <trkpt lat="38.6220370" lon="-0.0219820"><ele>77.4</ele></trkpt>
  <trkpt lat="38.6220240" lon="-0.0220140"><ele>81.0</ele></trkpt>
  <trkpt lat="38.6220150" lon="-0.0220440"><ele>84.0</ele></trkpt>
  <trkpt lat="38.6220180" lon="-0.0220720"><ele>87.2</ele></trkpt>
  <trkpt lat="38.6220310" lon="-0.0220940"><ele>90.6</ele></trkpt>
  <trkpt lat="38.6220480" lon="-0.0221200"><ele>94.2</ele></trkpt>
  <trkpt lat="38.6220670" lon="-0.0221430"><ele>98.0</ele></trkpt>
  <trkpt lat="38.6220800" lon="-0.0221710"><ele>101.2</ele></trkpt>
  <trkpt lat="38.6220850" lon="-0.0221990"><ele>103.8</ele></trkpt>
  <trkpt lat="38.6220890" lon="-0.0222280"><ele>106.4</ele></trkpt>
  <trkpt lat="38.6220820" lon="-0.0222570"><ele>109.2</ele></trkpt>
  <trkpt lat="38.6220750" lon="-0.0222830"><ele>112.2</ele></trkpt>
  <trkpt lat="38.6220660" lon="-0.0223130"><ele>115.2</ele></trkpt>
  <trkpt lat="38.6220630" lon="-0.0223300"><ele>118.4</ele></trkpt>
  <trkpt lat="38.6220500" lon="-0.0223550"><ele>121.8</ele></trkpt>
  <trkpt lat="38.6220360" lon="-0.0223810"><ele>125.4</ele></trkpt>
  <trkpt lat="38.6220200" lon="-0.0224110"><ele>129.0</ele></trkpt>
  <trkpt lat="38.6220010" lon="-0.0224380"><ele>132.4</ele></trkpt>
  <trkpt lat="38.6219810" lon="-0.0224650"><ele>136.4</ele></trkpt>
  <trkpt lat="38.6219650" lon="-0.0224910"><ele>140.0</ele></trkpt>
  <trkpt lat="38.6219510" lon="-0.0225180"><ele>142.0</ele></trkpt>
  <trkpt lat="38.6219340" lon="-0.0225820"><ele>143.2</ele></trkpt>
  <trkpt lat="38.6219300" lon="-0.0226120"><ele>144.6</ele></trkpt>
  <trkpt lat="38.6219280" lon="-0.0226400"><ele>145.8</ele></trkpt>
  <trkpt lat="38.6219000" lon="-0.0227080"><ele>148.4</ele></trkpt>
  <trkpt lat="38.6218790" lon="-0.0227240"><ele>150.8</ele></trkpt>
  <trkpt lat="38.6218560" lon="-0.0227350"><ele>152.8</ele></trkpt>
  <trkpt lat="38.6218330" lon="-0.0227430"><ele>154.6</ele></trkpt>
  <trkpt lat="38.6218070" lon="-0.0227460"><ele>156.2</ele></trkpt>
  <trkpt lat="38.6217780" lon="-0.0227450"><ele>158.0</ele></trkpt>
  <trkpt lat="38.6217480" lon="-0.0227400"><ele>159.2</ele></trkpt>
  <trkpt lat="38.6217230" lon="-0.0227280"><ele>160.4</ele></trkpt>
  <trkpt lat="38.6216970" lon="-0.0227090"><ele>161.4</ele></trkpt>
  <trkpt lat="38.6216690" lon="-0.0226890"><ele>162.8</ele></trkpt>
  <trkpt lat="38.6216460" lon="-0.0226710"><ele>164.0</ele></trkpt>
  <trkpt lat="38.6216180" lon="-0.0226510"><ele>165.2</ele></trkpt>
  <trkpt lat="38.6215900" lon="-0.0226430"><ele>166.6</ele></trkpt>
  <trkpt lat="38.6215590" lon="-0.0226430"><ele>168.2</ele></trkpt>
  <trkpt lat="38.6215340" lon="-0.0226510"><ele>169.4</ele></trkpt>
  <trkpt lat="38.6215100" lon="-0.0226640"><ele>170.8</ele></trkpt>
  <trkpt lat="38.6214860" lon="-0.0226850"><ele>172.4</ele></trkpt>
  <trkpt lat="38.6214650" lon="-0.0227030"><ele>173.6</ele></trkpt>
  <trkpt lat="38.6214410" lon="-0.0227230"><ele>174.8</ele></trkpt>
  <trkpt lat="38.6214170" lon="-0.0227440"><ele>176.0</ele></trkpt>
  <trkpt lat="38.6213920" lon="-0.0227660"><ele>177.0</ele></trkpt>
  <trkpt lat="38.6213420" lon="-0.0228100"><ele>178.6</ele></trkpt>
  <trkpt lat="38.6212890" lon="-0.0228500"><ele>179.8</ele></trkpt>
  <trkpt lat="38.6212240" lon="-0.0229140"><ele>180.4</ele></trkpt>
  <trkpt lat="38.6212040" lon="-0.0229400"><ele>181.0</ele></trkpt>
  <trkpt lat="38.6211600" lon="-0.0230120"><ele>182.6</ele></trkpt>
  <trkpt lat="38.6211400" lon="-0.0230840"><ele>183.8</ele></trkpt>
  <trkpt lat="38.6211200" lon="-0.0231270"><ele>184.2</ele></trkpt>
  <trkpt lat="38.6210930" lon="-0.0231960"><ele>185.0</ele></trkpt>
  <trkpt lat="38.6210500" lon="-0.0233110"><ele>186.2</ele></trkpt>
  <trkpt lat="38.6210150" lon="-0.0233780"><ele>187.8</ele></trkpt>
  <trkpt lat="38.6209840" lon="-0.0234450"><ele>189.0</ele></trkpt>
  <trkpt lat="38.6209110" lon="-0.0235820"><ele>190.2</ele></trkpt>
  <trkpt lat="38.6208600" lon="-0.0236800"><ele>190.4</ele></trkpt>
  <trkpt lat="38.6207270" lon="-0.0238740"><ele>189.6</ele></trkpt>
  <trkpt lat="38.6206840" lon="-0.0239250"><ele>189.0</ele></trkpt>
  <trkpt lat="38.6205780" lon="-0.0239600"><ele>188.4</ele></trkpt>
  <trkpt lat="38.6205570" lon="-0.0239380"><ele>188.0</ele></trkpt>
  <trkpt lat="38.6204990" lon="-0.0239100"><ele>186.8</ele></trkpt>
  <trkpt lat="38.6204800" lon="-0.0239190"><ele>186.0</ele></trkpt>
  <trkpt lat="38.6204540" lon="-0.0239410"><ele>184.8</ele></trkpt>
  <trkpt lat="38.6204120" lon="-0.0240020"><ele>183.6</ele></trkpt>
  <trkpt lat="38.6203450" lon="-0.0241430"><ele>183.6</ele></trkpt>
  <trkpt lat="38.6202800" lon="-0.0243930"><ele>184.6</ele></trkpt>
  <trkpt lat="38.6202310" lon="-0.0246070"><ele>185.6</ele></trkpt>
  <trkpt lat="38.6201270" lon="-0.0247960"><ele>186.0</ele></trkpt>
  <trkpt lat="38.6200950" lon="-0.0248650"><ele>185.4</ele></trkpt>
  <trkpt lat="38.6200700" lon="-0.0249280"><ele>184.6</ele></trkpt>
  <trkpt lat="38.6200230" lon="-0.0250240"><ele>184.2</ele></trkpt>
  <trkpt lat="38.6199900" lon="-0.0250810"><ele>184.2</ele></trkpt>
  <trkpt lat="38.6198740" lon="-0.0252950"><ele>185.4</ele></trkpt>
  <trkpt lat="38.6198630" lon="-0.0253270"><ele>185.6</ele></trkpt>
  <trkpt lat="38.6197730" lon="-0.0255260"><ele>186.0</ele></trkpt>
  <trkpt lat="38.6196880" lon="-0.0257610"><ele>186.4</ele></trkpt>
  <trkpt lat="38.6196730" lon="-0.0257940"><ele>186.4</ele></trkpt>
  <trkpt lat="38.6196260" lon="-0.0260040"><ele>186.2</ele></trkpt>
  <trkpt lat="38.6195830" lon="-0.0261880"><ele>186.6</ele></trkpt>
  <trkpt lat="38.6195710" lon="-0.0262250"><ele>187.0</ele></trkpt>
  <trkpt lat="38.6194900" lon="-0.0264190"><ele>188.4</ele></trkpt>
  <trkpt lat="38.6193800" lon="-0.0266280"><ele>189.2</ele></trkpt>
  <trkpt lat="38.6193520" lon="-0.0266860"><ele>189.4</ele></trkpt>
  <trkpt lat="38.6192810" lon="-0.0268380"><ele>190.4</ele></trkpt>
  <trkpt lat="38.6192710" lon="-0.0268700"><ele>190.6</ele></trkpt>
  <trkpt lat="38.6191950" lon="-0.0271070"><ele>190.8</ele></trkpt>
  <trkpt lat="38.6191150" lon="-0.0273300"><ele>190.8</ele></trkpt>
  <trkpt lat="38.6190750" lon="-0.0274300"><ele>190.6</ele></trkpt>
  <trkpt lat="38.6190310" lon="-0.0275680"><ele>189.2</ele></trkpt>
  <trkpt lat="38.6190040" lon="-0.0276340"><ele>188.2</ele></trkpt>
  <trkpt lat="38.6189940" lon="-0.0276660"><ele>187.4</ele></trkpt>
  <trkpt lat="38.6189860" lon="-0.0277000"><ele>186.6</ele></trkpt>
  <trkpt lat="38.6189680" lon="-0.0277690"><ele>184.6</ele></trkpt>
  <trkpt lat="38.6189250" lon="-0.0279470"><ele>183.8</ele></trkpt>
  <trkpt lat="38.6188570" lon="-0.0281850"><ele>185.4</ele></trkpt>
  <trkpt lat="38.6188390" lon="-0.0282150"><ele>186.2</ele></trkpt>
  <trkpt lat="38.6187070" lon="-0.0284220"><ele>187.0</ele></trkpt>
  <trkpt lat="38.6185790" lon="-0.0286050"><ele>187.0</ele></trkpt>
  <trkpt lat="38.6184510" lon="-0.0287960"><ele>186.6</ele></trkpt>
  <trkpt lat="38.6184110" lon="-0.0288420"><ele>186.4</ele></trkpt>
  <trkpt lat="38.6182730" lon="-0.0290200"><ele>186.0</ele></trkpt>
  <trkpt lat="38.6182160" lon="-0.0291060"><ele>185.8</ele></trkpt>
  <trkpt lat="38.6181970" lon="-0.0291360"><ele>185.8</ele></trkpt>
  <trkpt lat="38.6180590" lon="-0.0293230"><ele>185.6</ele></trkpt>
  <trkpt lat="38.6180250" lon="-0.0293800"><ele>185.8</ele></trkpt>
  <trkpt lat="38.6179340" lon="-0.0295830"><ele>186.6</ele></trkpt>
  <trkpt lat="38.6179190" lon="-0.0296150"><ele>186.6</ele></trkpt>
  <trkpt lat="38.6178260" lon="-0.0298320"><ele>187.0</ele></trkpt>
  <trkpt lat="38.6178110" lon="-0.0298640"><ele>187.0</ele></trkpt>
  <trkpt lat="38.6176880" lon="-0.0300250"><ele>186.6</ele></trkpt>
  <trkpt lat="38.6175220" lon="-0.0301860"><ele>186.2</ele></trkpt>
  <trkpt lat="38.6173550" lon="-0.0303390"><ele>185.4</ele></trkpt>
  <trkpt lat="38.6171950" lon="-0.0304990"><ele>185.6</ele></trkpt>
  <trkpt lat="38.6170710" lon="-0.0306720"><ele>185.8</ele></trkpt>
  <trkpt lat="38.6170280" lon="-0.0307300"><ele>186.0</ele></trkpt>
  <trkpt lat="38.6168890" lon="-0.0309220"><ele>186.2</ele></trkpt>
  <trkpt lat="38.6168490" lon="-0.0309790"><ele>186.0</ele></trkpt>
  <trkpt lat="38.6167010" lon="-0.0311590"><ele>186.8</ele></trkpt>
  <trkpt lat="38.6166820" lon="-0.0311870"><ele>187.4</ele></trkpt>
  <trkpt lat="38.6166400" lon="-0.0312350"><ele>187.8</ele></trkpt>
  <trkpt lat="38.6165770" lon="-0.0313130"><ele>188.6</ele></trkpt>
  <trkpt lat="38.6164190" lon="-0.0314880"><ele>187.8</ele></trkpt>
  <trkpt lat="38.6163950" lon="-0.0315080"><ele>187.4</ele></trkpt>
  <trkpt lat="38.6162390" lon="-0.0316740"><ele>186.8</ele></trkpt>
  <trkpt lat="38.6161700" lon="-0.0317430"><ele>187.6</ele></trkpt>
  <trkpt lat="38.6160000" lon="-0.0319060"><ele>187.8</ele></trkpt>
  <trkpt lat="38.6159550" lon="-0.0319560"><ele>188.4</ele></trkpt>
  <trkpt lat="38.6159100" lon="-0.0319970"><ele>189.6</ele></trkpt>
  <trkpt lat="38.6158910" lon="-0.0320170"><ele>190.0</ele></trkpt>
  <trkpt lat="38.6157200" lon="-0.0321690"><ele>190.0</ele></trkpt>
  <trkpt lat="38.6156460" lon="-0.0322290"><ele>189.8</ele></trkpt>
  <trkpt lat="38.6154720" lon="-0.0323500"><ele>189.8</ele></trkpt>
  <trkpt lat="38.6152660" lon="-0.0324230"><ele>190.4</ele></trkpt>
  <trkpt lat="38.6150680" lon="-0.0324320"><ele>189.0</ele></trkpt>
  <trkpt lat="38.6149230" lon="-0.0324280"><ele>190.0</ele></trkpt>
  <trkpt lat="38.6148510" lon="-0.0324530"><ele>190.6</ele></trkpt>
  <trkpt lat="38.6148110" lon="-0.0324750"><ele>191.0</ele></trkpt>
  <trkpt lat="38.6147130" lon="-0.0325330"><ele>191.2</ele></trkpt>
  <trkpt lat="38.6145160" lon="-0.0326140"><ele>191.4</ele></trkpt>
  <trkpt lat="38.6144870" lon="-0.0326260"><ele>191.4</ele></trkpt>
  <trkpt lat="38.6144000" lon="-0.0326730"><ele>191.0</ele></trkpt>
  <trkpt lat="38.6142990" lon="-0.0327690"><ele>190.6</ele></trkpt>
  <trkpt lat="38.6141840" lon="-0.0329510"><ele>190.0</ele></trkpt>
  <trkpt lat="38.6141630" lon="-0.0329830"><ele>190.2</ele></trkpt>
  <trkpt lat="38.6140180" lon="-0.0331560"><ele>191.0</ele></trkpt>
  <trkpt lat="38.6139680" lon="-0.0332160"><ele>191.0</ele></trkpt>
  <trkpt lat="38.6138140" lon="-0.0333500"><ele>190.6</ele></trkpt>
  <trkpt lat="38.6137650" lon="-0.0333950"><ele>190.6</ele></trkpt>
  <trkpt lat="38.6136250" lon="-0.0335030"><ele>189.2</ele></trkpt>
  <trkpt lat="38.6135710" lon="-0.0335590"><ele>188.2</ele></trkpt>
  <trkpt lat="38.6134090" lon="-0.0336900"><ele>188.8</ele></trkpt>
  <trkpt lat="38.6133670" lon="-0.0337470"><ele>189.6</ele></trkpt>
  <trkpt lat="38.6133310" lon="-0.0338090"><ele>190.8</ele></trkpt>
  <trkpt lat="38.6133060" lon="-0.0338290"><ele>191.4</ele></trkpt>
  <trkpt lat="38.6132770" lon="-0.0338490"><ele>191.6</ele></trkpt>
  <trkpt lat="38.6132500" lon="-0.0338720"><ele>191.8</ele></trkpt>
  <trkpt lat="38.6132210" lon="-0.0339370"><ele>193.0</ele></trkpt>
  <trkpt lat="38.6132220" lon="-0.0340040"><ele>193.6</ele></trkpt>
  <trkpt lat="38.6131960" lon="-0.0340280"><ele>193.8</ele></trkpt>
  <trkpt lat="38.6131620" lon="-0.0339930"><ele>194.0</ele></trkpt>
  <trkpt lat="38.6130650" lon="-0.0338710"><ele>194.4</ele></trkpt>
  <trkpt lat="38.6129470" lon="-0.0337160"><ele>193.0</ele></trkpt>
  <trkpt lat="38.6129180" lon="-0.0336970"><ele>192.2</ele></trkpt>
  <trkpt lat="38.6128700" lon="-0.0336310"><ele>190.8</ele></trkpt>
  <trkpt lat="38.6127960" lon="-0.0335230"><ele>189.2</ele></trkpt>
  <trkpt lat="38.6127300" lon="-0.0334310"><ele>187.6</ele></trkpt>
  <trkpt lat="38.6127100" lon="-0.0333780"><ele>186.6</ele></trkpt>
  <trkpt lat="38.6126870" lon="-0.0333190"><ele>186.2</ele></trkpt>
  <trkpt lat="38.6126520" lon="-0.0332990"><ele>184.8</ele></trkpt>
  <trkpt lat="38.6126390" lon="-0.0333220"><ele>184.2</ele></trkpt>
  <trkpt lat="38.6126290" lon="-0.0333650"><ele>184.0</ele></trkpt>
  <trkpt lat="38.6126250" lon="-0.0334130"><ele>182.8</ele></trkpt>
  <trkpt lat="38.6126400" lon="-0.0335200"><ele>182.8</ele></trkpt>
  <trkpt lat="38.6126470" lon="-0.0336890"><ele>183.8</ele></trkpt>
  <trkpt lat="38.6126530" lon="-0.0337720"><ele>184.2</ele></trkpt>
  <trkpt lat="38.6126520" lon="-0.0338610"><ele>185.2</ele></trkpt>
  <trkpt lat="38.6126210" lon="-0.0340500"><ele>186.0</ele></trkpt>
  <trkpt lat="38.6125900" lon="-0.0341360"><ele>186.0</ele></trkpt>
  <trkpt lat="38.6125450" lon="-0.0341890"><ele>186.4</ele></trkpt>
  <trkpt lat="38.6124510" lon="-0.0343310"><ele>187.4</ele></trkpt>
  <trkpt lat="38.6123990" lon="-0.0344130"><ele>188.6</ele></trkpt>
  <trkpt lat="38.6122850" lon="-0.0345940"><ele>189.6</ele></trkpt>
  <trkpt lat="38.6122680" lon="-0.0346240"><ele>189.6</ele></trkpt>
  <trkpt lat="38.6122090" lon="-0.0347030"><ele>190.4</ele></trkpt>
  <trkpt lat="38.6121390" lon="-0.0347780"><ele>190.6</ele></trkpt>
  <trkpt lat="38.6120540" lon="-0.0349230"><ele>190.8</ele></trkpt>
  <trkpt lat="38.6119970" lon="-0.0350170"><ele>190.8</ele></trkpt>
  <trkpt lat="38.6119710" lon="-0.0350090"><ele>190.8</ele></trkpt>
  <trkpt lat="38.6118550" lon="-0.0350610"><ele>189.6</ele></trkpt>
  <trkpt lat="38.6118040" lon="-0.0351060"><ele>188.8</ele></trkpt>
  <trkpt lat="38.6117580" lon="-0.0351550"><ele>188.6</ele></trkpt>
  <trkpt lat="38.6116160" lon="-0.0353030"><ele>188.6</ele></trkpt>
  <trkpt lat="38.6115140" lon="-0.0353930"><ele>189.6</ele></trkpt>
  <trkpt lat="38.6114370" lon="-0.0354590"><ele>189.6</ele></trkpt>
  <trkpt lat="38.6112740" lon="-0.0356170"><ele>189.0</ele></trkpt>
  <trkpt lat="38.6112100" lon="-0.0356740"><ele>188.4</ele></trkpt>
  <trkpt lat="38.6110920" lon="-0.0357940"><ele>188.4</ele></trkpt>
  <trkpt lat="38.6109410" lon="-0.0359510"><ele>187.6</ele></trkpt>
  <trkpt lat="38.6107880" lon="-0.0360800"><ele>188.2</ele></trkpt>
  <trkpt lat="38.6107620" lon="-0.0360980"><ele>188.6</ele></trkpt>
  <trkpt lat="38.6106070" lon="-0.0362280"><ele>189.0</ele></trkpt>
  <trkpt lat="38.6105330" lon="-0.0362880"><ele>188.6</ele></trkpt>
  <trkpt lat="38.6103990" lon="-0.0363820"><ele>187.0</ele></trkpt>
  <trkpt lat="38.6102570" lon="-0.0365010"><ele>187.8</ele></trkpt>
  <trkpt lat="38.6102440" lon="-0.0365140"><ele>188.2</ele></trkpt>
  <trkpt lat="38.6102140" lon="-0.0365400"><ele>188.2</ele></trkpt>
  <trkpt lat="38.6101760" lon="-0.0365630"><ele>186.8</ele></trkpt>
  <trkpt lat="38.6101550" lon="-0.0365680"><ele>185.8</ele></trkpt>
  <trkpt lat="38.6101380" lon="-0.0365720"><ele>184.6</ele></trkpt>
  <trkpt lat="38.6101320" lon="-0.0365790"><ele>184.0</ele></trkpt>
  <trkpt lat="38.6101260" lon="-0.0365860"><ele>182.6</ele></trkpt>
  <trkpt lat="38.6101210" lon="-0.0365950"><ele>181.0</ele></trkpt>
  <trkpt lat="38.6101220" lon="-0.0366020"><ele>179.6</ele></trkpt>
  <trkpt lat="38.6101290" lon="-0.0366070"><ele>178.2</ele></trkpt>
  <trkpt lat="38.6101350" lon="-0.0366090"><ele>176.8</ele></trkpt>
  <trkpt lat="38.6101420" lon="-0.0366100"><ele>175.6</ele></trkpt>
  <trkpt lat="38.6101470" lon="-0.0366070"><ele>174.4</ele></trkpt>
  <trkpt lat="38.6101500" lon="-0.0366110"><ele>173.4</ele></trkpt>
  <trkpt lat="38.6101580" lon="-0.0366180"><ele>172.2</ele></trkpt>
  <trkpt lat="38.6101580" lon="-0.0366170"><ele>171.8</ele></trkpt>
  <trkpt lat="38.6101570" lon="-0.0366160"><ele>170.6</ele></trkpt>
  <trkpt lat="38.6101600" lon="-0.0366140"><ele>169.2</ele></trkpt>
  <trkpt lat="38.6102650" lon="-0.0365480"><ele>168.4</ele></trkpt>
  <trkpt lat="38.6102900" lon="-0.0365290"><ele>169.0</ele></trkpt>
  <trkpt lat="38.6103420" lon="-0.0364970"><ele>170.6</ele></trkpt>
  <trkpt lat="38.6103970" lon="-0.0364570"><ele>171.8</ele></trkpt>
  <trkpt lat="38.6104460" lon="-0.0364220"><ele>172.2</ele></trkpt>
  <trkpt lat="38.6104700" lon="-0.0364030"><ele>172.8</ele></trkpt>
  <trkpt lat="38.6104950" lon="-0.0363840"><ele>173.2</ele></trkpt>
  <trkpt lat="38.6105460" lon="-0.0363470"><ele>173.8</ele></trkpt>
  <trkpt lat="38.6105710" lon="-0.0363290"><ele>175.0</ele></trkpt>
  <trkpt lat="38.6105950" lon="-0.0363120"><ele>176.0</ele></trkpt>
  <trkpt lat="38.6106470" lon="-0.0362770"><ele>177.4</ele></trkpt>
  <trkpt lat="38.6107170" lon="-0.0362070"><ele>178.8</ele></trkpt>
  <trkpt lat="38.6107680" lon="-0.0361610"><ele>179.0</ele></trkpt>
  <trkpt lat="38.6109010" lon="-0.0360650"><ele>179.8</ele></trkpt>
  <trkpt lat="38.6110030" lon="-0.0359870"><ele>180.2</ele></trkpt>
  <trkpt lat="38.6111080" lon="-0.0358860"><ele>181.0</ele></trkpt>
  <trkpt lat="38.6111260" lon="-0.0358690"><ele>181.4</ele></trkpt>
  <trkpt lat="38.6111450" lon="-0.0358350"><ele>181.6</ele></trkpt>
  <trkpt lat="38.6111670" lon="-0.0358100"><ele>182.0</ele></trkpt>
  <trkpt lat="38.6111980" lon="-0.0357710"><ele>182.6</ele></trkpt>
  <trkpt lat="38.6112230" lon="-0.0357390"><ele>183.4</ele></trkpt>
  <trkpt lat="38.6113040" lon="-0.0356560"><ele>184.0</ele></trkpt>
  <trkpt lat="38.6113540" lon="-0.0356070"><ele>184.4</ele></trkpt>
  <trkpt lat="38.6114300" lon="-0.0355270"><ele>185.8</ele></trkpt>
  <trkpt lat="38.6114880" lon="-0.0354690"><ele>187.2</ele></trkpt>
  <trkpt lat="38.6115170" lon="-0.0354400"><ele>187.4</ele></trkpt>
  <trkpt lat="38.6116680" lon="-0.0352960"><ele>187.6</ele></trkpt>
  <trkpt lat="38.6117550" lon="-0.0352000"><ele>187.8</ele></trkpt>
  <trkpt lat="38.6118000" lon="-0.0351470"><ele>188.4</ele></trkpt>
  <trkpt lat="38.6118440" lon="-0.0350960"><ele>189.6</ele></trkpt>
  <trkpt lat="38.6119030" lon="-0.0350190"><ele>190.4</ele></trkpt>
  <trkpt lat="38.6119560" lon="-0.0349950"><ele>190.8</ele></trkpt>
  <trkpt lat="38.6120370" lon="-0.0349630"><ele>191.4</ele></trkpt>
  <trkpt lat="38.6120800" lon="-0.0349120"><ele>191.4</ele></trkpt>
  <trkpt lat="38.6122020" lon="-0.0347990"><ele>192.0</ele></trkpt>
  <trkpt lat="38.6122590" lon="-0.0347430"><ele>192.6</ele></trkpt>
  <trkpt lat="38.6123040" lon="-0.0346740"><ele>193.0</ele></trkpt>
  <trkpt lat="38.6123970" lon="-0.0345360"><ele>193.4</ele></trkpt>
  <trkpt lat="38.6125110" lon="-0.0343500"><ele>193.4</ele></trkpt>
  <trkpt lat="38.6125610" lon="-0.0342500"><ele>193.2</ele></trkpt>
  <trkpt lat="38.6126360" lon="-0.0340450"><ele>191.8</ele></trkpt>
  <trkpt lat="38.6126530" lon="-0.0339960"><ele>191.2</ele></trkpt>
  <trkpt lat="38.6126840" lon="-0.0337670"><ele>191.0</ele></trkpt>
  <trkpt lat="38.6126920" lon="-0.0336800"><ele>190.8</ele></trkpt>
  <trkpt lat="38.6126980" lon="-0.0335950"><ele>190.8</ele></trkpt>
  <trkpt lat="38.6126790" lon="-0.0334510"><ele>190.8</ele></trkpt>
  <trkpt lat="38.6126450" lon="-0.0332770"><ele>189.6</ele></trkpt>
  <trkpt lat="38.6126070" lon="-0.0332290"><ele>189.4</ele></trkpt>
  <trkpt lat="38.6125900" lon="-0.0332270"><ele>188.8</ele></trkpt>
  <trkpt lat="38.6125790" lon="-0.0332390"><ele>187.8</ele></trkpt>
  <trkpt lat="38.6125810" lon="-0.0332550"><ele>187.0</ele></trkpt>
  <trkpt lat="38.6125800" lon="-0.0332680"><ele>186.0</ele></trkpt>
  <trkpt lat="38.6125830" lon="-0.0332840"><ele>185.2</ele></trkpt>
  <trkpt lat="38.6127680" lon="-0.0334790"><ele>12.8</ele></trkpt>
  <trkpt lat="38.6127770" lon="-0.0334880"><ele>12.8</ele></trkpt>
  <trkpt lat="38.6128040" lon="-0.0335250"><ele>13.0</ele></trkpt>
  <trkpt lat="38.6128720" lon="-0.0335990"><ele>13.6</ele></trkpt>
  <trkpt lat="38.6129040" lon="-0.0336330"><ele>13.8</ele></trkpt>
  <trkpt lat="38.6129160" lon="-0.0336620"><ele>14.2</ele></trkpt>
  <trkpt lat="38.6129730" lon="-0.0337470"><ele>15.2</ele></trkpt>
  <trkpt lat="38.6130040" lon="-0.0337900"><ele>15.6</ele></trkpt>
  <trkpt lat="38.6130240" lon="-0.0338130"><ele>15.6</ele></trkpt>
  <trkpt lat="38.6131290" lon="-0.0339220"><ele>15.0</ele></trkpt>
  <trkpt lat="38.6131980" lon="-0.0339710"><ele>14.8</ele></trkpt>
  <trkpt lat="38.6132110" lon="-0.0339620"><ele>14.8</ele></trkpt>
  <trkpt lat="38.6132600" lon="-0.0338820"><ele>14.6</ele></trkpt>
  <trkpt lat="38.6133130" lon="-0.0336890"><ele>14.4</ele></trkpt>
  <trkpt lat="38.6133440" lon="-0.0336650"><ele>14.2</ele></trkpt>
  <trkpt lat="38.6134860" lon="-0.0335560"><ele>13.6</ele></trkpt>
  <trkpt lat="38.6135550" lon="-0.0335070"><ele>13.0</ele></trkpt>
  <trkpt lat="38.6136370" lon="-0.0334030"><ele>12.6</ele></trkpt>
  <trkpt lat="38.6136940" lon="-0.0333650"><ele>12.4</ele></trkpt>
  <trkpt lat="38.6137760" lon="-0.0333230"><ele>11.8</ele></trkpt>
  <trkpt lat="38.6138330" lon="-0.0332940"><ele>11.2</ele></trkpt>
  <trkpt lat="38.6139650" lon="-0.0331930"><ele>10.6</ele></trkpt>
  <trkpt lat="38.6140290" lon="-0.0331210"><ele>10.6</ele></trkpt>
  <trkpt lat="38.6141650" lon="-0.0329490"><ele>11.0</ele></trkpt>
  <trkpt lat="38.6142950" lon="-0.0327720"><ele>11.4</ele></trkpt>
  <trkpt lat="38.6143260" lon="-0.0327210"><ele>11.6</ele></trkpt>
  <trkpt lat="38.6143750" lon="-0.0326640"><ele>11.6</ele></trkpt>
  <trkpt lat="38.6144040" lon="-0.0326280"><ele>11.6</ele></trkpt>
  <trkpt lat="38.6144360" lon="-0.0325960"><ele>11.6</ele></trkpt>
  <trkpt lat="38.6146110" lon="-0.0325300"><ele>11.4</ele></trkpt>
  <trkpt lat="38.6146530" lon="-0.0325070"><ele>11.4</ele></trkpt>
  <trkpt lat="38.6147600" lon="-0.0324890"><ele>11.2</ele></trkpt>
  <trkpt lat="38.6148970" lon="-0.0324860"><ele>10.6</ele></trkpt>
  <trkpt lat="38.6149220" lon="-0.0324870"><ele>10.6</ele></trkpt>
  <trkpt lat="38.6149870" lon="-0.0324790"><ele>10.0</ele></trkpt>
  <trkpt lat="38.6151180" lon="-0.0324860"><ele>9.8</ele></trkpt>
  <trkpt lat="38.6152350" lon="-0.0324640"><ele>9.8</ele></trkpt>
  <trkpt lat="38.6152630" lon="-0.0324690"><ele>9.8</ele></trkpt>
  <trkpt lat="38.6152970" lon="-0.0324700"><ele>9.6</ele></trkpt>
  <trkpt lat="38.6154200" lon="-0.0324470"><ele>9.6</ele></trkpt>
  <trkpt lat="38.6156080" lon="-0.0323600"><ele>9.8</ele></trkpt>
  <trkpt lat="38.6157850" lon="-0.0322300"><ele>10.2</ele></trkpt>
  <trkpt lat="38.6159130" lon="-0.0320990"><ele>10.4</ele></trkpt>
  <trkpt lat="38.6160680" lon="-0.0319270"><ele>11.0</ele></trkpt>
  <trkpt lat="38.6161630" lon="-0.0318500"><ele>11.2</ele></trkpt>
  <trkpt lat="38.6163100" lon="-0.0316970"><ele>11.2</ele></trkpt>
  <trkpt lat="38.6163290" lon="-0.0316760"><ele>11.2</ele></trkpt>
  <trkpt lat="38.6164720" lon="-0.0315330"><ele>10.2</ele></trkpt>
  <trkpt lat="38.6166170" lon="-0.0313910"><ele>10.4</ele></trkpt>
  <trkpt lat="38.6166390" lon="-0.0313700"><ele>10.2</ele></trkpt>
  <trkpt lat="38.6167570" lon="-0.0312190"><ele>10.0</ele></trkpt>
  <trkpt lat="38.6167730" lon="-0.0311920"><ele>10.0</ele></trkpt>
  <trkpt lat="38.6169020" lon="-0.0310160"><ele>9.8</ele></trkpt>
  <trkpt lat="38.6169820" lon="-0.0309020"><ele>9.6</ele></trkpt>
  <trkpt lat="38.6171040" lon="-0.0307020"><ele>9.2</ele></trkpt>
  <trkpt lat="38.6172450" lon="-0.0305190"><ele>9.0</ele></trkpt>
  <trkpt lat="38.6172980" lon="-0.0304430"><ele>8.8</ele></trkpt>
  <trkpt lat="38.6174230" lon="-0.0303050"><ele>8.6</ele></trkpt>
  <trkpt lat="38.6174860" lon="-0.0302410"><ele>8.6</ele></trkpt>
  <trkpt lat="38.6175300" lon="-0.0301990"><ele>8.6</ele></trkpt>
  <trkpt lat="38.6175730" lon="-0.0301530"><ele>8.6</ele></trkpt>
  <trkpt lat="38.6177280" lon="-0.0299790"><ele>9.0</ele></trkpt>
  <trkpt lat="38.6177830" lon="-0.0298970"><ele>9.0</ele></trkpt>
  <trkpt lat="38.6179040" lon="-0.0297020"><ele>8.8</ele></trkpt>
  <trkpt lat="38.6179440" lon="-0.0296440"><ele>8.6</ele></trkpt>
  <trkpt lat="38.6180620" lon="-0.0294220"><ele>8.8</ele></trkpt>
  <trkpt lat="38.6181020" lon="-0.0293210"><ele>8.4</ele></trkpt>
  <trkpt lat="38.6182320" lon="-0.0291300"><ele>8.4</ele></trkpt>
  <trkpt lat="38.6182510" lon="-0.0291060"><ele>8.4</ele></trkpt>
  <trkpt lat="38.6183820" lon="-0.0289240"><ele>8.2</ele></trkpt>
  <trkpt lat="38.6184380" lon="-0.0288450"><ele>8.2</ele></trkpt>
  <trkpt lat="38.6185650" lon="-0.0286530"><ele>7.6</ele></trkpt>
  <trkpt lat="38.6186780" lon="-0.0284890"><ele>7.8</ele></trkpt>
  <trkpt lat="38.6187800" lon="-0.0283520"><ele>7.6</ele></trkpt>
  <trkpt lat="38.6188340" lon="-0.0282600"><ele>7.2</ele></trkpt>
  <trkpt lat="38.6189370" lon="-0.0280540"><ele>7.2</ele></trkpt>
  <trkpt lat="38.6190070" lon="-0.0278080"><ele>7.0</ele></trkpt>
  <trkpt lat="38.6190580" lon="-0.0275610"><ele>6.8</ele></trkpt>
  <trkpt lat="38.6190840" lon="-0.0274550"><ele>6.8</ele></trkpt>
  <trkpt lat="38.6191500" lon="-0.0272330"><ele>6.6</ele></trkpt>
  <trkpt lat="38.6192420" lon="-0.0270130"><ele>6.6</ele></trkpt>
  <trkpt lat="38.6192680" lon="-0.0269520"><ele>6.4</ele></trkpt>
  <trkpt lat="38.6193570" lon="-0.0267300"><ele>6.2</ele></trkpt>
  <trkpt lat="38.6193730" lon="-0.0267030"><ele>6.0</ele></trkpt>
  <trkpt lat="38.6194860" lon="-0.0264920"><ele>5.8</ele></trkpt>
  <trkpt lat="38.6195140" lon="-0.0264300"><ele>5.6</ele></trkpt>
  <trkpt lat="38.6195280" lon="-0.0263980"><ele>5.4</ele></trkpt>
  <trkpt lat="38.6196330" lon="-0.0261840"><ele>5.6</ele></trkpt>
  <trkpt lat="38.6196560" lon="-0.0261150"><ele>5.8</ele></trkpt>
  <trkpt lat="38.6197260" lon="-0.0258900"><ele>5.8</ele></trkpt>
  <trkpt lat="38.6197630" lon="-0.0257930"><ele>5.6</ele></trkpt>
  <trkpt lat="38.6198090" lon="-0.0256770"><ele>5.4</ele></trkpt>
  <trkpt lat="38.6198470" lon="-0.0255790"><ele>5.4</ele></trkpt>
  <trkpt lat="38.6199420" lon="-0.0253790"><ele>5.4</ele></trkpt>
  <trkpt lat="38.6199700" lon="-0.0253170"><ele>5.4</ele></trkpt>
  <trkpt lat="38.6200680" lon="-0.0250970"><ele>5.2</ele></trkpt>
  <trkpt lat="38.6200780" lon="-0.0250710"><ele>5.2</ele></trkpt>
  <trkpt lat="38.6201460" lon="-0.0248970"><ele>5.2</ele></trkpt>
  <trkpt lat="38.6202480" lon="-0.0246710"><ele>5.2</ele></trkpt>
  <trkpt lat="38.6202630" lon="-0.0246360"><ele>5.2</ele></trkpt>
  <trkpt lat="38.6203260" lon="-0.0244050"><ele>5.4</ele></trkpt>
  <trkpt lat="38.6203580" lon="-0.0241900"><ele>5.2</ele></trkpt>
  <trkpt lat="38.6204640" lon="-0.0239660"><ele>5.2</ele></trkpt>
  <trkpt lat="38.6205080" lon="-0.0239270"><ele>6.0</ele></trkpt>
  <trkpt lat="38.6205500" lon="-0.0239280"><ele>6.6</ele></trkpt>
  <trkpt lat="38.6205870" lon="-0.0239690"><ele>6.8</ele></trkpt>
  <trkpt lat="38.6206100" lon="-0.0239830"><ele>7.2</ele></trkpt>
  <trkpt lat="38.6206320" lon="-0.0239840"><ele>7.6</ele></trkpt>
  <trkpt lat="38.6206550" lon="-0.0239720"><ele>8.0</ele></trkpt>
  <trkpt lat="38.6207470" lon="-0.0238940"><ele>8.8</ele></trkpt>
  <trkpt lat="38.6208220" lon="-0.0237930"><ele>9.2</ele></trkpt>
  <trkpt lat="38.6208690" lon="-0.0237070"><ele>10.0</ele></trkpt>
  <trkpt lat="38.6209600" lon="-0.0235030"><ele>10.4</ele></trkpt>
  <trkpt lat="38.6209910" lon="-0.0234480"><ele>11.2</ele></trkpt>
  <trkpt lat="38.6211060" lon="-0.0232640"><ele>12.2</ele></trkpt>
  <trkpt lat="38.6211830" lon="-0.0230540"><ele>13.0</ele></trkpt>
  <trkpt lat="38.6211970" lon="-0.0230280"><ele>13.0</ele></trkpt>
  <trkpt lat="38.6213530" lon="-0.0228690"><ele>13.0</ele></trkpt>
  <trkpt lat="38.6215110" lon="-0.0227370"><ele>13.2</ele></trkpt>
  <trkpt lat="38.6215330" lon="-0.0227190"><ele>13.2</ele></trkpt>
  <trkpt lat="38.6216500" lon="-0.0226620"><ele>13.2</ele></trkpt>
  <trkpt lat="38.6216740" lon="-0.0226780"><ele>13.2</ele></trkpt>
  <trkpt lat="38.6217860" lon="-0.0227780"><ele>14.0</ele></trkpt>
  <trkpt lat="38.6218360" lon="-0.0227910"><ele>14.4</ele></trkpt>
  <trkpt lat="38.6219150" lon="-0.0227690"><ele>15.0</ele></trkpt>
  <trkpt lat="38.6221150" lon="-0.0227170"><ele>14.8</ele></trkpt>
  <trkpt lat="38.6223070" lon="-0.0226550"><ele>14.0</ele></trkpt>
  <trkpt lat="38.6223300" lon="-0.0226340"><ele>14.4</ele></trkpt>
  <trkpt lat="38.6224080" lon="-0.0225250"><ele>14.6</ele></trkpt>
  <trkpt lat="38.6224060" lon="-0.0225070"><ele>14.6</ele></trkpt>
  <trkpt lat="38.6223770" lon="-0.0224240"><ele>13.4</ele></trkpt>
  <trkpt lat="38.6223590" lon="-0.0223980"><ele>13.0</ele></trkpt>
  <trkpt lat="38.6223030" lon="-0.0223250"><ele>11.8</ele></trkpt>
  <trkpt lat="38.6222830" lon="-0.0223010"><ele>11.4</ele></trkpt>
  <trkpt lat="38.6222600" lon="-0.0222670"><ele>10.6</ele></trkpt>
  <trkpt lat="38.6222340" lon="-0.0222410"><ele>10.4</ele></trkpt>
  <trkpt lat="38.6222110" lon="-0.0222100"><ele>9.4</ele></trkpt>
  <trkpt lat="38.6221750" lon="-0.0221690"><ele>8.4</ele></trkpt>
  <trkpt lat="38.6221350" lon="-0.0221250"><ele>7.6</ele></trkpt>
  <trkpt lat="38.6221160" lon="-0.0221050"><ele>7.2</ele></trkpt>
  <trkpt lat="38.6220790" lon="-0.0220290"><ele>6.2</ele></trkpt>
  <trkpt lat="38.6220820" lon="-0.0220010"><ele>6.0</ele></trkpt>
  <trkpt lat="38.6221010" lon="-0.0219520"><ele>5.4</ele></trkpt>
  <trkpt lat="38.6221300" lon="-0.0219120"><ele>4.8</ele></trkpt>
  <trkpt lat="38.6221540" lon="-0.0218970"><ele>4.6</ele></trkpt>
  <trkpt lat="38.6223070" lon="-0.0217530"><ele>4.6</ele></trkpt>
  <trkpt lat="38.6224690" lon="-0.0216140"><ele>4.8</ele></trkpt>
  <trkpt lat="38.6225430" lon="-0.0215500"><ele>5.2</ele></trkpt>
  <trkpt lat="38.6226180" lon="-0.0214590"><ele>5.4</ele></trkpt>
  <trkpt lat="38.6226490" lon="-0.0214060"><ele>5.2</ele></trkpt>
  <trkpt lat="38.6227810" lon="-0.0212380"><ele>4.8</ele></trkpt>
  <trkpt lat="38.6229010" lon="-0.0210350"><ele>5.0</ele></trkpt>
  <trkpt lat="38.6229270" lon="-0.0209690"><ele>4.6</ele></trkpt>
  <trkpt lat="38.6230470" lon="-0.0207600"><ele>4.4</ele></trkpt>
  <trkpt lat="38.6232080" lon="-0.0206020"><ele>5.0</ele></trkpt>
  <trkpt lat="38.6232460" lon="-0.0205470"><ele>5.2</ele></trkpt>
  <trkpt lat="38.6233460" lon="-0.0204450"><ele>5.4</ele></trkpt>
  <trkpt lat="38.6235150" lon="-0.0203070"><ele>5.4</ele></trkpt>
  <trkpt lat="38.6235590" lon="-0.0202580"><ele>5.4</ele></trkpt>
  <trkpt lat="38.6236740" lon="-0.0201010"><ele>6.0</ele></trkpt>
  <trkpt lat="38.6236970" lon="-0.0200500"><ele>6.2</ele></trkpt>
  <trkpt lat="38.6237950" lon="-0.0199100"><ele>6.2</ele></trkpt>
  <trkpt lat="38.6238560" lon="-0.0198610"><ele>6.2</ele></trkpt>
  <trkpt lat="38.6238960" lon="-0.0198010"><ele>6.0</ele></trkpt>
  <trkpt lat="38.6240480" lon="-0.0196140"><ele>5.6</ele></trkpt>
  <trkpt lat="38.6241740" lon="-0.0194430"><ele>5.4</ele></trkpt>
  <trkpt lat="38.6241910" lon="-0.0194140"><ele>5.6</ele></trkpt>
  <trkpt lat="38.6243290" lon="-0.0192400"><ele>6.2</ele></trkpt>
  <trkpt lat="38.6243510" lon="-0.0192180"><ele>6.2</ele></trkpt>
  <trkpt lat="38.6244970" lon="-0.0190480"><ele>6.4</ele></trkpt>
  <trkpt lat="38.6245550" lon="-0.0189770"><ele>6.8</ele></trkpt>
  <trkpt lat="38.6245730" lon="-0.0189530"><ele>7.0</ele></trkpt>
  <trkpt lat="38.6247210" lon="-0.0187940"><ele>6.6</ele></trkpt>
  <trkpt lat="38.6247430" lon="-0.0187670"><ele>6.6</ele></trkpt>
  <trkpt lat="38.6248250" lon="-0.0185560"><ele>6.8</ele></trkpt>
  <trkpt lat="38.6249110" lon="-0.0183320"><ele>7.0</ele></trkpt>
  <trkpt lat="38.6249630" lon="-0.0181990"><ele>8.2</ele></trkpt>
  <trkpt lat="38.6250150" lon="-0.0180740"><ele>8.8</ele></trkpt>
  <trkpt lat="38.6250560" lon="-0.0179810"><ele>8.6</ele></trkpt>
  <trkpt lat="38.6251350" lon="-0.0178940"><ele>8.2</ele></trkpt>
  <trkpt lat="38.6251930" lon="-0.0178090"><ele>7.0</ele></trkpt>
  <trkpt lat="38.6252580" lon="-0.0177250"><ele>5.2</ele></trkpt>
  <trkpt lat="38.6253160" lon="-0.0176450"><ele>4.4</ele></trkpt>
  <trkpt lat="38.6254350" lon="-0.0175230"><ele>4.2</ele></trkpt>
  <trkpt lat="38.6254760" lon="-0.0174740"><ele>4.2</ele></trkpt>
  <trkpt lat="38.6256020" lon="-0.0172960"><ele>4.0</ele></trkpt>
  <trkpt lat="38.6256350" lon="-0.0172470"><ele>3.6</ele></trkpt>
  <trkpt lat="38.6257520" lon="-0.0170670"><ele>4.4</ele></trkpt>
  <trkpt lat="38.6258750" lon="-0.0168870"><ele>4.6</ele></trkpt>
  <trkpt lat="38.6259050" lon="-0.0168240"><ele>4.6</ele></trkpt>
  <trkpt lat="38.6260400" lon="-0.0166280"><ele>4.8</ele></trkpt>
  <trkpt lat="38.6261320" lon="-0.0165290"><ele>4.8</ele></trkpt>
  <trkpt lat="38.6261820" lon="-0.0165350"><ele>5.2</ele></trkpt>
  <trkpt lat="38.6262010" lon="-0.0165430"><ele>6.4</ele></trkpt>
  <trkpt lat="38.6262180" lon="-0.0165490"><ele>6.8</ele></trkpt>
  <trkpt lat="38.6262580" lon="-0.0165540"><ele>7.4</ele></trkpt>
  <trkpt lat="38.6263260" lon="-0.0165410"><ele>8.8</ele></trkpt>
  <trkpt lat="38.6263640" lon="-0.0165300"><ele>10.2</ele></trkpt>
  <trkpt lat="38.6264050" lon="-0.0165160"><ele>11.6</ele></trkpt>
  <trkpt lat="38.6264350" lon="-0.0165020"><ele>13.0</ele></trkpt>
  <trkpt lat="38.6264570" lon="-0.0164930"><ele>14.6</ele></trkpt>
  <trkpt lat="38.6264690" lon="-0.0164990"><ele>15.0</ele></trkpt>
  <trkpt lat="38.6265170" lon="-0.0165450"><ele>15.4</ele></trkpt>
  <trkpt lat="38.6265300" lon="-0.0165600"><ele>15.6</ele></trkpt>
  <trkpt lat="38.6265460" lon="-0.0165720"><ele>15.8</ele></trkpt>
  <trkpt lat="38.6266140" lon="-0.0166110"><ele>16.4</ele></trkpt>
  <trkpt lat="38.6266360" lon="-0.0166280"><ele>16.4</ele></trkpt>
  <trkpt lat="38.6267640" lon="-0.0166910"><ele>17.0</ele></trkpt>
  <trkpt lat="38.6267840" lon="-0.0167020"><ele>17.0</ele></trkpt>
  <trkpt lat="38.6268380" lon="-0.0167360"><ele>18.2</ele></trkpt>
  <trkpt lat="38.6268840" lon="-0.0167540"><ele>19.0</ele></trkpt>
  <trkpt lat="38.6269340" lon="-0.0167680"><ele>19.6</ele></trkpt>
  <trkpt lat="38.6269610" lon="-0.0167900"><ele>20.2</ele></trkpt>
  <trkpt lat="38.6269660" lon="-0.0168100"><ele>21.0</ele></trkpt>
  <trkpt lat="38.6269830" lon="-0.0168620"><ele>22.0</ele></trkpt>
  <trkpt lat="38.6269990" lon="-0.0168850"><ele>22.0</ele></trkpt>
  <trkpt lat="38.6270410" lon="-0.0169140"><ele>22.6</ele></trkpt>
  <trkpt lat="38.6270850" lon="-0.0169320"><ele>23.2</ele></trkpt>
  <trkpt lat="38.6271400" lon="-0.0169280"><ele>24.6</ele></trkpt>
  <trkpt lat="38.6271520" lon="-0.0169050"><ele>24.8</ele></trkpt>
  <trkpt lat="38.6271760" lon="-0.0167840"><ele>25.6</ele></trkpt>
  <trkpt lat="38.6271770" lon="-0.0167540"><ele>25.8</ele></trkpt>
  <trkpt lat="38.6271680" lon="-0.0167270"><ele>25.8</ele></trkpt>
  <trkpt lat="38.6271270" lon="-0.0166080"><ele>26.4</ele></trkpt>
  <trkpt lat="38.6271110" lon="-0.0165490"><ele>26.8</ele></trkpt>
  <trkpt lat="38.6270820" lon="-0.0164300"><ele>27.8</ele></trkpt>
  <trkpt lat="38.6270700" lon="-0.0163650"><ele>28.4</ele></trkpt>
  <trkpt lat="38.6270740" lon="-0.0163390"><ele>28.4</ele></trkpt>
  <trkpt lat="38.6271170" lon="-0.0162680"><ele>29.0</ele></trkpt>
  <trkpt lat="38.6271330" lon="-0.0162550"><ele>29.2</ele></trkpt>
  <trkpt lat="38.6271680" lon="-0.0162510"><ele>29.8</ele></trkpt>
  <trkpt lat="38.6271860" lon="-0.0162560"><ele>30.0</ele></trkpt>
  <trkpt lat="38.6272070" lon="-0.0162660"><ele>30.2</ele></trkpt>
  <trkpt lat="38.6272980" lon="-0.0163070"><ele>31.2</ele></trkpt>
  <trkpt lat="38.6273650" lon="-0.0163540"><ele>31.8</ele></trkpt>
  <trkpt lat="38.6274100" lon="-0.0163830"><ele>32.4</ele></trkpt>
  <trkpt lat="38.6275190" lon="-0.0164560"><ele>33.4</ele></trkpt>
  <trkpt lat="38.6275390" lon="-0.0164720"><ele>33.8</ele></trkpt>
  <trkpt lat="38.6276070" lon="-0.0165030"><ele>34.4</ele></trkpt>
  <trkpt lat="38.6276870" lon="-0.0165600"><ele>35.4</ele></trkpt>
  <trkpt lat="38.6277070" lon="-0.0165750"><ele>35.6</ele></trkpt>
  <trkpt lat="38.6277670" lon="-0.0166200"><ele>36.8</ele></trkpt>
  <trkpt lat="38.6278270" lon="-0.0166400"><ele>38.0</ele></trkpt>
  <trkpt lat="38.6278460" lon="-0.0166190"><ele>38.2</ele></trkpt>
  <trkpt lat="38.6278890" lon="-0.0165340"><ele>39.2</ele></trkpt>
  <trkpt lat="38.6278970" lon="-0.0164710"><ele>39.6</ele></trkpt>
  <trkpt lat="38.6279110" lon="-0.0164150"><ele>40.2</ele></trkpt>
  <trkpt lat="38.6279230" lon="-0.0162590"><ele>41.4</ele></trkpt>
  <trkpt lat="38.6279240" lon="-0.0162290"><ele>41.6</ele></trkpt>
  <trkpt lat="38.6279400" lon="-0.0161650"><ele>42.4</ele></trkpt>
  <trkpt lat="38.6279450" lon="-0.0161590"><ele>42.8</ele></trkpt>
  <trkpt lat="38.6279550" lon="-0.0161760"><ele>43.0</ele></trkpt>
  <trkpt lat="38.6279590" lon="-0.0162370"><ele>43.4</ele></trkpt>
  <trkpt lat="38.6279570" lon="-0.0163140"><ele>43.6</ele></trkpt>
  <trkpt lat="38.6280290" lon="-0.0165420"><ele>44.0</ele></trkpt>
  <trkpt lat="38.6281220" lon="-0.0165940"><ele>44.8</ele></trkpt>
  <trkpt lat="38.6281450" lon="-0.0166010"><ele>45.0</ele></trkpt>
  <trkpt lat="38.6282240" lon="-0.0165990"><ele>46.0</ele></trkpt>
  <trkpt lat="38.6283060" lon="-0.0165940"><ele>47.2</ele></trkpt>
  <trkpt lat="38.6283600" lon="-0.0165880"><ele>47.6</ele></trkpt>
  <trkpt lat="38.6284100" lon="-0.0165650"><ele>48.2</ele></trkpt>
  <trkpt lat="38.6284820" lon="-0.0165450"><ele>49.2</ele></trkpt>
  <trkpt lat="38.6285090" lon="-0.0165490"><ele>49.4</ele></trkpt>
  <trkpt lat="38.6286110" lon="-0.0165280"><ele>50.4</ele></trkpt>
  <trkpt lat="38.6286370" lon="-0.0165200"><ele>50.6</ele></trkpt>
  <trkpt lat="38.6287030" lon="-0.0164870"><ele>51.6</ele></trkpt>
  <trkpt lat="38.6288070" lon="-0.0164340"><ele>52.4</ele></trkpt>
  <trkpt lat="38.6288320" lon="-0.0164200"><ele>52.6</ele></trkpt>
  <trkpt lat="38.6289860" lon="-0.0163370"><ele>53.8</ele></trkpt>
  <trkpt lat="38.6290300" lon="-0.0162930"><ele>54.0</ele></trkpt>
  <trkpt lat="38.6291720" lon="-0.0161250"><ele>54.6</ele></trkpt>
  <trkpt lat="38.6292340" lon="-0.0160430"><ele>54.8</ele></trkpt>
  <trkpt lat="38.6292880" lon="-0.0159250"><ele>56.0</ele></trkpt>
  <trkpt lat="38.6292980" lon="-0.0158940"><ele>56.0</ele></trkpt>
  <trkpt lat="38.6293440" lon="-0.0156820"><ele>57.0</ele></trkpt>
  <trkpt lat="38.6293730" lon="-0.0156130"><ele>57.4</ele></trkpt>
  <trkpt lat="38.6294080" lon="-0.0155570"><ele>58.0</ele></trkpt>
  <trkpt lat="38.6294770" lon="-0.0154570"><ele>59.2</ele></trkpt>
  <trkpt lat="38.6295360" lon="-0.0153440"><ele>60.2</ele></trkpt>
  <trkpt lat="38.6296100" lon="-0.0152270"><ele>61.4</ele></trkpt>
  <trkpt lat="38.6296640" lon="-0.0151420"><ele>62.4</ele></trkpt>
  <trkpt lat="38.6297180" lon="-0.0150520"><ele>64.0</ele></trkpt>
  <trkpt lat="38.6297520" lon="-0.0149990"><ele>64.8</ele></trkpt>
  <trkpt lat="38.6297680" lon="-0.0149750"><ele>65.4</ele></trkpt>
  <trkpt lat="38.6298270" lon="-0.0149230"><ele>66.6</ele></trkpt>
  <trkpt lat="38.6298700" lon="-0.0149020"><ele>67.0</ele></trkpt>
  <trkpt lat="38.6299040" lon="-0.0148900"><ele>67.6</ele></trkpt>
  <trkpt lat="38.6299210" lon="-0.0148860"><ele>69.0</ele></trkpt>
  <trkpt lat="38.6338390" lon="-0.0150690"><ele>147.8</ele></trkpt>
  <trkpt lat="38.6338410" lon="-0.0150690"><ele>148.0</ele></trkpt>
  <trkpt lat="38.6338850" lon="-0.0150460"><ele>148.6</ele></trkpt>
  <trkpt lat="38.6339100" lon="-0.0150350"><ele>149.0</ele></trkpt>
  <trkpt lat="38.6339830" lon="-0.0150110"><ele>150.4</ele></trkpt>
  <trkpt lat="38.6340580" lon="-0.0149870"><ele>151.4</ele></trkpt>
  <trkpt lat="38.6340820" lon="-0.0149770"><ele>151.6</ele></trkpt>
  <trkpt lat="38.6341280" lon="-0.0149590"><ele>152.4</ele></trkpt>
  <trkpt lat="38.6341980" lon="-0.0149290"><ele>154.0</ele></trkpt>
  <trkpt lat="38.6342640" lon="-0.0148950"><ele>155.0</ele></trkpt>
  <trkpt lat="38.6343110" lon="-0.0148620"><ele>156.4</ele></trkpt>
  <trkpt lat="38.6343800" lon="-0.0148230"><ele>157.8</ele></trkpt>
  <trkpt lat="38.6344510" lon="-0.0147970"><ele>159.2</ele></trkpt>
  <trkpt lat="38.6345210" lon="-0.0147630"><ele>160.8</ele></trkpt>
  <trkpt lat="38.6345430" lon="-0.0147520"><ele>161.8</ele></trkpt>
  <trkpt lat="38.6345910" lon="-0.0147280"><ele>162.8</ele></trkpt>
  <trkpt lat="38.6346150" lon="-0.0147180"><ele>164.0</ele></trkpt>
  <trkpt lat="38.6347050" lon="-0.0146750"><ele>165.0</ele></trkpt>
  <trkpt lat="38.6347510" lon="-0.0146480"><ele>165.6</ele></trkpt>
  <trkpt lat="38.6347740" lon="-0.0146360"><ele>166.0</ele></trkpt>
  <trkpt lat="38.6348230" lon="-0.0146220"><ele>167.2</ele></trkpt>
  <trkpt lat="38.6348750" lon="-0.0145960"><ele>168.0</ele></trkpt>
  <trkpt lat="38.6348990" lon="-0.0145800"><ele>168.6</ele></trkpt>
  <trkpt lat="38.6349640" lon="-0.0145200"><ele>170.2</ele></trkpt>
  <trkpt lat="38.6349930" lon="-0.0144730"><ele>171.2</ele></trkpt>
  <trkpt lat="38.6350070" lon="-0.0144460"><ele>172.4</ele></trkpt>
  <trkpt lat="38.6350310" lon="-0.0144010"><ele>173.8</ele></trkpt>
  <trkpt lat="38.6350660" lon="-0.0143500"><ele>175.2</ele></trkpt>
  <trkpt lat="38.6350900" lon="-0.0142960"><ele>176.8</ele></trkpt>
  <trkpt lat="38.6351130" lon="-0.0142430"><ele>178.2</ele></trkpt>
  <trkpt lat="38.6351320" lon="-0.0141850"><ele>179.4</ele></trkpt>
  <trkpt lat="38.6351490" lon="-0.0141230"><ele>180.4</ele></trkpt>
  <trkpt lat="38.6351640" lon="-0.0140310"><ele>181.8</ele></trkpt>
  <trkpt lat="38.6351670" lon="-0.0139990"><ele>181.8</ele></trkpt>
  <trkpt lat="38.6351700" lon="-0.0139690"><ele>181.8</ele></trkpt>
  <trkpt lat="38.6351930" lon="-0.0138210"><ele>181.6</ele></trkpt>
  <trkpt lat="38.6352080" lon="-0.0137620"><ele>181.8</ele></trkpt>
  <trkpt lat="38.6352390" lon="-0.0136000"><ele>180.2</ele></trkpt>
  <trkpt lat="38.6352450" lon="-0.0135740"><ele>180.2</ele></trkpt>
  <trkpt lat="38.6352740" lon="-0.0134300"><ele>180.6</ele></trkpt>
  <trkpt lat="38.6352890" lon="-0.0133770"><ele>181.4</ele></trkpt>
  <trkpt lat="38.6353160" lon="-0.0132970"><ele>183.6</ele></trkpt>
  <trkpt lat="38.6353270" lon="-0.0132720"><ele>183.6</ele></trkpt>
  <trkpt lat="38.6353390" lon="-0.0132420"><ele>183.6</ele></trkpt>
  <trkpt lat="38.6353830" lon="-0.0131290"><ele>183.0</ele></trkpt>
  <trkpt lat="38.6354380" lon="-0.0130420"><ele>182.6</ele></trkpt>
  <trkpt lat="38.6354450" lon="-0.0130360"><ele>181.8</ele></trkpt>
  <trkpt lat="38.6355470" lon="-0.0129360"><ele>183.0</ele></trkpt>
  <trkpt lat="38.6355980" lon="-0.0128960"><ele>183.6</ele></trkpt>
  <trkpt lat="38.6356590" lon="-0.0128560"><ele>184.6</ele></trkpt>
  <trkpt lat="38.6357410" lon="-0.0128220"><ele>185.0</ele></trkpt>
  <trkpt lat="38.6357870" lon="-0.0128020"><ele>185.2</ele></trkpt>
  <trkpt lat="38.6358100" lon="-0.0127930"><ele>185.8</ele></trkpt>
  <trkpt lat="38.6359000" lon="-0.0127710"><ele>187.0</ele></trkpt>
  <trkpt lat="38.6359430" lon="-0.0127800"><ele>187.6</ele></trkpt>
  <trkpt lat="38.6359870" lon="-0.0127790"><ele>188.2</ele></trkpt>
  <trkpt lat="38.6360990" lon="-0.0127960"><ele>189.4</ele></trkpt>
  <trkpt lat="38.6361220" lon="-0.0128020"><ele>189.6</ele></trkpt>
  <trkpt lat="38.6362600" lon="-0.0128850"><ele>190.4</ele></trkpt>
  <trkpt lat="38.6363040" lon="-0.0129120"><ele>190.6</ele></trkpt>
  <trkpt lat="38.6364160" lon="-0.0129600"><ele>191.6</ele></trkpt>
  <trkpt lat="38.6364380" lon="-0.0129730"><ele>191.6</ele></trkpt>
  <trkpt lat="38.6366050" lon="-0.0130710"><ele>192.0</ele></trkpt>
  <trkpt lat="38.6367000" lon="-0.0131150"><ele>192.4</ele></trkpt>
  <trkpt lat="38.6368370" lon="-0.0131700"><ele>192.4</ele></trkpt>
  <trkpt lat="38.6370200" lon="-0.0132340"><ele>191.6</ele></trkpt>
  <trkpt lat="38.6372000" lon="-0.0133010"><ele>191.8</ele></trkpt>
  <trkpt lat="38.6373620" lon="-0.0133250"><ele>192.2</ele></trkpt>
  <trkpt lat="38.6373930" lon="-0.0132890"><ele>192.8</ele></trkpt>
  <trkpt lat="38.6374610" lon="-0.0132180"><ele>192.6</ele></trkpt>
  <trkpt lat="38.6375400" lon="-0.0131390"><ele>192.4</ele></trkpt>
  <trkpt lat="38.6375370" lon="-0.0131000"><ele>192.2</ele></trkpt>
  <trkpt lat="38.6375410" lon="-0.0129630"><ele>191.6</ele></trkpt>
  <trkpt lat="38.6375640" lon="-0.0129060"><ele>191.4</ele></trkpt>
  <trkpt lat="38.6376430" lon="-0.0127350"><ele>191.2</ele></trkpt>
  <trkpt lat="38.6376660" lon="-0.0127380"><ele>191.4</ele></trkpt>
  <trkpt lat="38.6376810" lon="-0.0127480"><ele>191.6</ele></trkpt>
  <trkpt lat="38.6376990" lon="-0.0127430"><ele>191.8</ele></trkpt>
  <trkpt lat="38.6377340" lon="-0.0127090"><ele>192.0</ele></trkpt>
  <trkpt lat="38.6377800" lon="-0.0126280"><ele>192.6</ele></trkpt>
  <trkpt lat="38.6378250" lon="-0.0124620"><ele>193.8</ele></trkpt>
  <trkpt lat="38.6377740" lon="-0.0123350"><ele>194.8</ele></trkpt>
  <trkpt lat="38.6377250" lon="-0.0122320"><ele>195.2</ele></trkpt>
  <trkpt lat="38.6376660" lon="-0.0121490"><ele>195.4</ele></trkpt>
  <trkpt lat="38.6375570" lon="-0.0119640"><ele>195.4</ele></trkpt>
  <trkpt lat="38.6374780" lon="-0.0118290"><ele>195.8</ele></trkpt>
  <trkpt lat="38.6374620" lon="-0.0118000"><ele>195.8</ele></trkpt>
  <trkpt lat="38.6373580" lon="-0.0116030"><ele>195.6</ele></trkpt>
  <trkpt lat="38.6373250" lon="-0.0115500"><ele>195.6</ele></trkpt>
  <trkpt lat="38.6372220" lon="-0.0113610"><ele>195.2</ele></trkpt>
  <trkpt lat="38.6372080" lon="-0.0113330"><ele>195.0</ele></trkpt>
  <trkpt lat="38.6371490" lon="-0.0112350"><ele>194.8</ele></trkpt>
  <trkpt lat="38.6370930" lon="-0.0111230"><ele>194.4</ele></trkpt>
  <trkpt lat="38.6369470" lon="-0.0109520"><ele>195.2</ele></trkpt>
  <trkpt lat="38.6369240" lon="-0.0109330"><ele>195.2</ele></trkpt>
  <trkpt lat="38.6367460" lon="-0.0108040"><ele>195.6</ele></trkpt>
  <trkpt lat="38.6367210" lon="-0.0107870"><ele>195.8</ele></trkpt>
  <trkpt lat="38.6366930" lon="-0.0107680"><ele>196.0</ele></trkpt>
  <trkpt lat="38.6365280" lon="-0.0106740"><ele>196.6</ele></trkpt>
  <trkpt lat="38.6364530" lon="-0.0106370"><ele>196.8</ele></trkpt>
  <trkpt lat="38.6364020" lon="-0.0106070"><ele>197.2</ele></trkpt>
  <trkpt lat="38.6362320" lon="-0.0104920"><ele>197.8</ele></trkpt>
  <trkpt lat="38.6362110" lon="-0.0104680"><ele>197.6</ele></trkpt>
  <trkpt lat="38.6361140" lon="-0.0102980"><ele>197.4</ele></trkpt>
  <trkpt lat="38.6360010" lon="-0.0101210"><ele>197.2</ele></trkpt>
  <trkpt lat="38.6358880" lon="-0.0099050"><ele>197.4</ele></trkpt>
  <trkpt lat="38.6358570" lon="-0.0098520"><ele>197.6</ele></trkpt>
  <trkpt lat="38.6357390" lon="-0.0096740"><ele>197.8</ele></trkpt>
  <trkpt lat="38.6357050" lon="-0.0096230"><ele>197.8</ele></trkpt>
  <trkpt lat="38.6356850" lon="-0.0095930"><ele>197.8</ele></trkpt>
  <trkpt lat="38.6356070" lon="-0.0094720"><ele>199.2</ele></trkpt>
  <trkpt lat="38.6355630" lon="-0.0093770"><ele>199.8</ele></trkpt>
  <trkpt lat="38.6355330" lon="-0.0093100"><ele>200.8</ele></trkpt>
  <trkpt lat="38.6354950" lon="-0.0092140"><ele>201.8</ele></trkpt>
  <trkpt lat="38.6354610" lon="-0.0090540"><ele>202.8</ele></trkpt>
  <trkpt lat="38.6354530" lon="-0.0090120"><ele>203.2</ele></trkpt>
  <trkpt lat="38.6354230" lon="-0.0087920"><ele>204.4</ele></trkpt>
  <trkpt lat="38.6354220" lon="-0.0087540"><ele>204.6</ele></trkpt>
  <trkpt lat="38.6354230" lon="-0.0086050"><ele>205.6</ele></trkpt>
  <trkpt lat="38.6354340" lon="-0.0084600"><ele>205.8</ele></trkpt>
  <trkpt lat="38.6354410" lon="-0.0083330"><ele>206.8</ele></trkpt>
  <trkpt lat="38.6354470" lon="-0.0082710"><ele>207.2</ele></trkpt>
  <trkpt lat="38.6354510" lon="-0.0080290"><ele>207.4</ele></trkpt>
  <trkpt lat="38.6354270" lon="-0.0079290"><ele>207.8</ele></trkpt>
  <trkpt lat="38.6353670" lon="-0.0078250"><ele>208.0</ele></trkpt>
  <trkpt lat="38.6351950" lon="-0.0077250"><ele>208.2</ele></trkpt>
  <trkpt lat="38.6350150" lon="-0.0076370"><ele>206.8</ele></trkpt>
  <trkpt lat="38.6349840" lon="-0.0076270"><ele>206.4</ele></trkpt>
  <trkpt lat="38.6349510" lon="-0.0076170"><ele>206.2</ele></trkpt>
  <trkpt lat="38.6348560" lon="-0.0075740"><ele>205.2</ele></trkpt>
  <trkpt lat="38.6347620" lon="-0.0075310"><ele>203.8</ele></trkpt>
  <trkpt lat="38.6347300" lon="-0.0075190"><ele>203.6</ele></trkpt>
  <trkpt lat="38.6346420" lon="-0.0074720"><ele>202.8</ele></trkpt>
  <trkpt lat="38.6345900" lon="-0.0074380"><ele>201.8</ele></trkpt>
  <trkpt lat="38.6345680" lon="-0.0074150"><ele>201.6</ele></trkpt>
  <trkpt lat="38.6344730" lon="-0.0072850"><ele>201.2</ele></trkpt>
  <trkpt lat="38.6344480" lon="-0.0072350"><ele>201.4</ele></trkpt>
  <trkpt lat="38.6343680" lon="-0.0070240"><ele>202.2</ele></trkpt>
  <trkpt lat="38.6343400" lon="-0.0069440"><ele>202.8</ele></trkpt>
  <trkpt lat="38.6343240" lon="-0.0069060"><ele>203.0</ele></trkpt>
  <trkpt lat="38.6342420" lon="-0.0067190"><ele>203.6</ele></trkpt>
  <trkpt lat="38.6341300" lon="-0.0065110"><ele>202.4</ele></trkpt>
  <trkpt lat="38.6341050" lon="-0.0064810"><ele>201.8</ele></trkpt>
  <trkpt lat="38.6340820" lon="-0.0064520"><ele>201.4</ele></trkpt>
  <trkpt lat="38.6340310" lon="-0.0063880"><ele>200.4</ele></trkpt>
  <trkpt lat="38.6339840" lon="-0.0063260"><ele>199.4</ele></trkpt>
  <trkpt lat="38.6339600" lon="-0.0062970"><ele>198.0</ele></trkpt>
  <trkpt lat="38.6339360" lon="-0.0062710"><ele>197.0</ele></trkpt>
  <trkpt lat="38.6338800" lon="-0.0062210"><ele>195.8</ele></trkpt>
  <trkpt lat="38.6338550" lon="-0.0062040"><ele>195.0</ele></trkpt>
  <trkpt lat="38.6338190" lon="-0.0061810"><ele>194.2</ele></trkpt>
  <trkpt lat="38.6337650" lon="-0.0061460"><ele>192.8</ele></trkpt>
  <trkpt lat="38.6336590" lon="-0.0060400"><ele>192.4</ele></trkpt>
  <trkpt lat="38.6336390" lon="-0.0060090"><ele>192.8</ele></trkpt>
  <trkpt lat="38.6336090" lon="-0.0059410"><ele>194.0</ele></trkpt>
  <trkpt lat="38.6335960" lon="-0.0059010"><ele>195.2</ele></trkpt>
  <trkpt lat="38.6335840" lon="-0.0058590"><ele>195.8</ele></trkpt>
  <trkpt lat="38.6335720" lon="-0.0058210"><ele>196.2</ele></trkpt>
  <trkpt lat="38.6335630" lon="-0.0057860"><ele>197.0</ele></trkpt>
  <trkpt lat="38.6335560" lon="-0.0057520"><ele>197.8</ele></trkpt>
  <trkpt lat="38.6335470" lon="-0.0057150"><ele>199.4</ele></trkpt>
  <trkpt lat="38.6335400" lon="-0.0056730"><ele>200.0</ele></trkpt>
  <trkpt lat="38.6335380" lon="-0.0056340"><ele>201.2</ele></trkpt>
  <trkpt lat="38.6335410" lon="-0.0056070"><ele>202.4</ele></trkpt>
  <trkpt lat="38.6335420" lon="-0.0055650"><ele>203.2</ele></trkpt>
  <trkpt lat="38.6335460" lon="-0.0055270"><ele>204.0</ele></trkpt>
  <trkpt lat="38.6335370" lon="-0.0054550"><ele>205.2</ele></trkpt>
  <trkpt lat="38.6335380" lon="-0.0053380"><ele>206.2</ele></trkpt>
  <trkpt lat="38.6335350" lon="-0.0052220"><ele>207.0</ele></trkpt>
  <trkpt lat="38.6335390" lon="-0.0051500"><ele>207.4</ele></trkpt>
  <trkpt lat="38.6335610" lon="-0.0050530"><ele>208.8</ele></trkpt>
  <trkpt lat="38.6335760" lon="-0.0049760"><ele>211.2</ele></trkpt>
  <trkpt lat="38.6335810" lon="-0.0049490"><ele>212.6</ele></trkpt>
  <trkpt lat="38.6336150" lon="-0.0048390"><ele>214.0</ele></trkpt>
  <trkpt lat="38.6336530" lon="-0.0047460"><ele>214.0</ele></trkpt>
  <trkpt lat="38.6337470" lon="-0.0046030"><ele>212.8</ele></trkpt>
  <trkpt lat="38.6337940" lon="-0.0045540"><ele>212.2</ele></trkpt>
  <trkpt lat="38.6338640" lon="-0.0044950"><ele>211.0</ele></trkpt>
  <trkpt lat="38.6338870" lon="-0.0044790"><ele>209.6</ele></trkpt>
  <trkpt lat="38.6339110" lon="-0.0044620"><ele>208.2</ele></trkpt>
  <trkpt lat="38.6339370" lon="-0.0044500"><ele>206.8</ele></trkpt>
  <trkpt lat="38.6339670" lon="-0.0044420"><ele>206.0</ele></trkpt>
  <trkpt lat="38.6339990" lon="-0.0044310"><ele>204.8</ele></trkpt>
  <trkpt lat="38.6340310" lon="-0.0044140"><ele>203.2</ele></trkpt>
  <trkpt lat="38.6340630" lon="-0.0043960"><ele>201.6</ele></trkpt>
  <trkpt lat="38.6341110" lon="-0.0043600"><ele>199.6</ele></trkpt>
  <trkpt lat="38.6341310" lon="-0.0043370"><ele>198.2</ele></trkpt>
  <trkpt lat="38.6341650" lon="-0.0043150"><ele>196.8</ele></trkpt>
  <trkpt lat="38.6342020" lon="-0.0042930"><ele>195.6</ele></trkpt>
  <trkpt lat="38.6342530" lon="-0.0042630"><ele>194.2</ele></trkpt>
  <trkpt lat="38.6342780" lon="-0.0042210"><ele>193.0</ele></trkpt>
  <trkpt lat="38.6342900" lon="-0.0041880"><ele>192.0</ele></trkpt>
  <trkpt lat="38.6342900" lon="-0.0041710"><ele>191.2</ele></trkpt>
  <trkpt lat="38.6342880" lon="-0.0041510"><ele>190.4</ele></trkpt>
  <trkpt lat="38.6342870" lon="-0.0041200"><ele>188.8</ele></trkpt>
  <trkpt lat="38.6342820" lon="-0.0040910"><ele>187.0</ele></trkpt>
  <trkpt lat="38.6342770" lon="-0.0040710"><ele>185.8</ele></trkpt>
  <trkpt lat="38.6342810" lon="-0.0040400"><ele>184.4</ele></trkpt>
  <trkpt lat="38.6342870" lon="-0.0040080"><ele>182.6</ele></trkpt>
  <trkpt lat="38.6342850" lon="-0.0039920"><ele>181.8</ele></trkpt>
  <trkpt lat="38.6342850" lon="-0.0039740"><ele>181.2</ele></trkpt>
  <trkpt lat="38.6342780" lon="-0.0039410"><ele>179.8</ele></trkpt>
  <trkpt lat="38.6342730" lon="-0.0039090"><ele>178.4</ele></trkpt>
  <trkpt lat="38.6342710" lon="-0.0038880"><ele>177.4</ele></trkpt>
  <trkpt lat="38.6342690" lon="-0.0038800"><ele>177.0</ele></trkpt>
  <trkpt lat="38.6342700" lon="-0.0038660"><ele>176.2</ele></trkpt>
  <trkpt lat="38.6342680" lon="-0.0038620"><ele>175.6</ele></trkpt>
  <trkpt lat="38.6342690" lon="-0.0038620"><ele>175.0</ele></trkpt>
  <trkpt lat="38.6342740" lon="-0.0038610"><ele>173.8</ele></trkpt>
  <trkpt lat="38.6342820" lon="-0.0038620"><ele>172.8</ele></trkpt>
  <trkpt lat="38.6342830" lon="-0.0038360"><ele>172.0</ele></trkpt>
  <trkpt lat="38.6342850" lon="-0.0038230"><ele>172.2</ele></trkpt>
  <trkpt lat="38.6342940" lon="-0.0037980"><ele>172.2</ele></trkpt>
  <trkpt lat="38.6342880" lon="-0.0037350"><ele>172.4</ele></trkpt>
  <trkpt lat="38.6342810" lon="-0.0036850"><ele>171.6</ele></trkpt>
  <trkpt lat="38.6342790" lon="-0.0036670"><ele>171.6</ele></trkpt>
  <trkpt lat="38.6342730" lon="-0.0036460"><ele>171.2</ele></trkpt>
  <trkpt lat="38.6342740" lon="-0.0036390"><ele>170.8</ele></trkpt>
  <trkpt lat="38.6343840" lon="-0.0037610"><ele>159.2</ele></trkpt>
  <trkpt lat="38.6343870" lon="-0.0037590"><ele>159.4</ele></trkpt>
  <trkpt lat="38.6343900" lon="-0.0037700"><ele>159.8</ele></trkpt>
 </trkseg></trk>
</gpx>